id;rep_no;name;group;address1;address2;postcode;suburb;state;country;phone;website;lat;lng;type
1;642;AHEAD OF TIME HAIR & BEAUTY SPA;;251 HANNAN STREET;;6430;KALGOORLIE;WA;Australia;08 9021 6627;;-30.748329;121.472519;
2;642;ASTONE FOR HAIR          ;;"SHOP 7, 17 WARWICK GROVE S/C
CNR BEACH & ERINDALE ROADS";;6024;WARWICK         ;WA;Australia;08 9447 4502    ;;-31.840878;115.816742;
3;642;BAZZO & JONES;;7/4 GUAVA WAY;;6210;HALLS HEAD;WA;Australia;;;-32.549149;115.701469;
4;642;BOSSANOVA HAIR STUDIO - MORLEY;BOSSANOVA HAIR STUDIO;"SHOP 1 CENTRO GALLERIA
4 COLLIER ROAD           ";;6062;MORLEY          ;WA;Australia;08 9275 9444    ;;-31.897942;115.900169;
5;642;BOSSANOVA HAIR STUDIO - INNALOO;BOSSANOVA HAIR STUDIO;"SHOP 49 WESTFIELD S/CENTRE
384 SCARBOROUGH BAY ROAD";;6018;INNALOO         ;WA;Australia;08 9446 7858    ;;-31.902111;115.798775;
6;642;BROOKE FIORE HAIR & BEAUTY   ;;61B MINNINUP ROAD        ;;6230;BUNBURY         ;WA;Australia;08 9792 5211    ;;-33.348789;115.633537;
7;642;CAROLE GRAF              ;;"SHOP 6  MEADOWVALE S/CENTR
298 MILL POINT ROAD   ";;6151;SOUTH PERTH     ;WA;Australia;08 9367 6733    ;;-31.976984;115.872597;
8;642;CIRCLES OF SUBIACO       ;;SHOP 2-3, 513 HAY STREET;;6008;SUBIACO         ;WA;Australia;08 9388 3110    ;;-31.947472;115.822998;
9;642;CIRCULAR ONE HAIR & BEAUTY;;SUITE 4, 175 LABOUCHERE ROAD;;6152;COMO;WA;Australia;08 9474 1511;;-31.993366;115.858971;
10;642;CISION HAIR;;SHOP 9, 1292 HAY STREET;;6005;WEST PERTH;WA;Australia;08 9226 1260;;-31.951307;115.839714;
11;642;CONNOLLY HAIR            ;;SHOP 3 CONNOLLY SHOPPING CENTRE ;;6027;CONNOLLY        ;WA;Australia;08 9300 1144    ;;-31.753332;115.749992;
12;642;ELATION FOR HAIR & BODY;;22 QUEEN STREET;;3280;BUSSELTON;WA;Australia;08 9751 2882;;-33.648254;115.34388;
13;642;ELLA HAIR                ;;SHOP 3, 156 OXFORD STREET       ;;6007;LEEDERVILLE     ;WA;Australia;08 9201 2191    ;;-31.936291;115.841537;
14;642;GAFFNEY'S                ;;"SHOP 7 HEATHRIDGE CITY S/CENTRE
99 CARIBEAN STREET       ";;6027;HEATHRIDGE      ;WA;Australia;08 9307 3304    ;;-31.760527;115.763748;
15;642;HAIR OUTAQUIN;;438 FITZGERALD STREET;;6006;NORTH PERTH     ;WA;Australia;08 9228 8211;;-31.931639;115.859291;
16;642;HAIR RELIGION;;"SHOP 66 RIVERTON FORUM S/CENTRE
HIGH ROAD";;6148;RIVERTON;WA;Australia;08 9354 9959;;-32.038673;115.897522;
17;642;HEAD STUDIO - SUCCESS;HEAD STUDIO;"SHOP 20A GATEWAY S/CENTRE
BEELIAR DRIVE            ";;6164;SUCCESS         ;WA;Australia;08 9498 7577    ;;-32.131935;115.858742;
18;642;HEAD STUDIO - PERTH;HEAD STUDIO;64 KING STREET;;6000;PERTH           ;WA;Australia;08 9481 6464;;-31.951326;115.855515;
19;642;HEAD STUDIO - ROCKINGHAM  ;HEAD STUDIO;"SHOP 4 THE BOARDWARK  
7 RAILWAY TCE PALM BEACH ";;6168;ROCKINGHAM      ;WA;Australia;08 9527 6271    ;;-32.275631;115.72953;
20;642;HEMISPHERE FOR HAIR      ;;SHOP 1, 669 BEAUFORT STREET         ;;6050;MOUNT LAWLEY    ;WA;Australia;08 9271 0067    ;;-31.933832;115.872536;
21;642;HOUSE OF ERNEST;;"19 UPPER HAY STREET
CARILLON CITY ARCADE";;6000;PERTH           ;WA;Australia;08 9321 3391;;-31.953703;115.858849;
22;642;JT'S LADIES & MEN'S H/S  WHITFORDS;JT'S;"SHOP 164 WHITFORD CITY S/CENTRE
WHITFORD AVENUE";;6025;WHITFORD;WA;Australia;08 9401 0898    ;;-31.799837;115.745682;
23;642;JT'S LADIES & MEN'S H/S  JOONDALUP;JT'S;LAKESIDE SHOPPING CENTRE ;;6027;JOONDALUP       ;WA;Australia;08 9300 1009;;-31.744858;115.767342;
24;642;JT'S LADIES & MEN'S H/S - ROCKINGHAM;JT'S;SHOP T220 ROCKINGHAM CITY S/CENTRE;;6168;ROCKINGHAM      ;WA;Australia;08 9527 4588;;-32.275761;115.732063;
25;642;JT'S LADIES & MEN'S H/S -  MIDLAND;JT'S;"SHOP 92  MIDLAND GATE S/CENTRE 
GREAT EASTERN HWY        ";;6056;MIDLAND         ;WA;Australia;08 9274 4252    ;;-31.891272;116.009521;
26;642;JT'S LADIES & MEN'S H/S-  MORlLEY;JT'S;"SHOP 118 GALLERIA S/CENTRE  
COLLIER ROAD";;6062;MORLEY          ;WA;Australia;08 9275 9443;;-31.900312;115.903999;
27;642;JT'S LADIES & MEN'S H/S - BELMONT;JT'S;SHOP 100 BELMONT FORUM S/CENTRE;;6104;BELMONT         ;WA;Australia;08 9479 4314;;-31.943375;115.925751;
28;642;JT'S LADIES & MEN'S H/S - CANNINGTON;JT'S;"SHOP 1048 CAROUSEL S/CENTRE
1382 ALBANY HIGHWAY   ";;6107;CANNINGTON      ;WA;Australia;08 9356 8844;;-32.018772;115.93634;
29;642;JT'S LADIES & MEN'S H/S - BOORAGOON;JT'S;"SHOP 206 GARDEN CITY S/CENTRE 
125-133 RISELEY STREET";;6154;BOORAGOON       ;WA;Australia;08 9315 9655    ;;-32.033894;115.835358;
30;642;JT'S LADIES & MENS H/S -  CLARKSON;JT'S;SHOP 17 OCEAN KEYS SHOPPING CENTRE;;6030;CLARKSON        ;WA;Australia;08 9407 7209;;-31.681454;115.714638;
31;642;JT'S LADIES & MENS H/S -  ELLENBROOK;JT'S;"SHOP T45 THE SHOPS AT ELLENBROOK
CNR PINASTER PDE & THE PROMENADE";;6069;ELLENBROOK;WA;Australia;08 6296 6028;;-31.78064;115.969658;
574;0;BACH HAIR;;76 Cochrane Street;;4064;Paddington;QLD;Australia;;;-27.455938;153.004105;
33;642;M.A. SALON;;492-494 STIRLING HWY     ;;6011;PEPPERMINT GROVE;WA;Australia;08 9383 1749;;-31.999311;115.761955;
34;642;MAKASI;;SHOP 3, 138 BARRACK STREET;;6000;PERTH           ;WA;Australia;08 9221 8816;;-31.95289;115.86132;
35;642;MAURICE MEADE  - BOORAGOON  ;MAURICE MEADE;SHOP 161 BOORAGGON S/C            ;;6154;BOORAGOON       ;WA;Australia;08 9315 9144    ;;-32.032917;115.832634;
36;642;MAURICE MEADE CLAREMONT  ;MAURICE MEADE;"1st FLOOR CLAREMONT QUARTER
ST QUENTIN AVENUE";;6010;CLAREMONT       ;WA;Australia;08 9384 6744;;-31.982935;115.779076;
37;642;MAURICE MEADE DAVID JONES - BOORAGOON;MAURICE MEADE;"DAVID JONES 1ST FLOOR 
BOORAGOON S/CENTRE  ";;6154;BOORAGOON       ;WA;Australia;08 9364 8488    ;;-32.035328;115.83596;
38;642;MAURICE MEADE - KARRINYUP  ;MAURICE MEADE;"SHOP F133 KARRINYUP S/CENTRE 
200 KARRINYUP ROAD       ";;6018;KARRINYUP       ;WA;Australia;08 9446 2422;;-31.876862;115.778923;
39;642;MAURICE MEADE DAVID JONES -KARRINYUP  ;MAURICE MEADE;"DAVID JONES 1ST FLOOR
KARRINYUP S/CENTRE            ";;6018;KARRINYUP       ;WA;Australia;08 9445 3403;;-31.875526;115.778;
40;642;MAURICE MEADE-  PERTH      ;MAURICE MEADE;847 HAY ST               ;;6000;PERTH           ;WA;Australia;08 9321 9987    ;;-31.95265;115.854126;
41;642;MAURICE MEADE - SUBIACO    ;MAURICE MEADE;CNR BAKER & ROKEBY RDS   ;;6008;SUBIACO         ;WA;Australia;08 9381 6447    ;;-31.948761;115.824043;
42;642;MAURICE MEADES - ACADEMY;MAURICE MEADE;4 BURGAY COURT;;6017;OSBOURNE PARK;WA;Australia;;;-31.907915;115.801941;
43;642;MAURICE MEADE - WHITFORD   ;MAURICE MEADE;"SHOP 262 WHITFORD AVENUE
WHITFORD CITY S/CENTRE        ";;6025;WHITFORD CITY   ;WA;Australia;08 9402 5899    ;;-31.799837;115.745682;
44;642;MAURICE MEADES - CAROUSEL;MAURICE MEADE;"SHOP 1029 CAROUSEL S/CENTRE
1382 ALBANY HIGHWAY";;6107;CANNINGTON      ;WA;Australia;08 9356 6811;;-32.018772;115.93634;
45;642;ME;;"SHOP 214, LEVEL 2 CLAREMONT QUARTER
ST QUENTINS AVENUE";;6101;CLAREMONT       ;WA;Australia;08 9284 2429;;-31.982351;115.780785;
46;642;PERFECT ENDS FOR HAIR;;SHOP 5, 6 KINGSBRIDGE BLVD;;6036;BUTLER;WA;Australia;08 9562 4244;;-31.649965;115.697914;
47;642;PERFECT ENDZ;;3/99 LINDSAY BEACH BOULEVARD;;6035;YANCHEP;WA;Australia;08 9561 6919;;-31.542511;115.631714;
48;642;RAVEN HAIR DESIGN;;3A, 40 WADDELL ROAD;;6157;BICTON          ;WA;Australia;08 9319 8828;;-32.033909;115.792374;
49;642;RE FINERY ;;"SHOP 2 CARINE GLADES S/CENTRE 
BEACH ROAD               ";;6023;DUNCRAIG;WA;Australia;08 9246 1710    ;;-31.845762;115.779442;
50;642;REBECCA OATES HAIR  - BICTON     ;REBECCA OATS HAIR;SHOP 5, 258 CANNING HIGHWAY      ;;6157;BICTON          ;WA;Australia;08 9319 1748    ;;-32.037701;115.776657;
51;642;REBECCA OATES HAIR - COTTESLOE      ;REBECCA OATS HAIR;17 NAPOLEAN STREET;;6011;COTTLESLOE;WA;Australia;08 9284 4059;;-31.997999;115.761566;
52;642;REBECCA OATES HAIR - SUBIACO      ;REBECCA OATS HAIR;119 ROKEBY ROAD;;6008;SUBIACO         ;WA;Australia;;;-31.948429;115.823898;
53;642;RENO'S HAIR CARE - KARRINYUP        ;RENO'S HAIR CARE;SH G19 KARRINYUP S/CENTRE    ;;6018;KARRINYUP       ;WA;Australia;08 9446 6740;;-31.875526;115.778;
54;642;RENO'S HAIR CARE  - WARWICK;RENO'S HAIR CARE;SH 43 WARWICK GROVE S/CENTRE  ;;6024;WARWICK         ;WA;Australia;08 9447 8502;;-31.840878;115.816742;
55;642;RENO'S HAIR CARE -  JOONDALUP      ;RENO'S HAIR CARE;SHOP 67 LAKESIDE JOONDALUP S/CENTRE           ;;6027;JOONDALUP       ;WA;Australia;08 9300 3664;;-31.744106;115.763847;
56;642;RENO'S HAIR CARE  -   MORLEY     ;RENO'S HAIR CARE;"MORLEY GALLERIA S/CENTRE  
SHOP 104 GROUND FLOOR    ";;6062;MORLEY          ;WA;Australia;08 9276 8258    ;;-31.898243;115.895073;
57;642;RENO'S HAIR CARE -  BOORAGOON    ;RENO'S HAIR CARE;SH 38 GARDEN CITY S/CENTRE    ;;6154;BOORAGOON       ;WA;Australia;08 9364 8088;;-32.035328;115.83596;
58;642;RENO'S ON ST QUEINTEN;RENO'S HAIR CARE;SHOP L1149 CLAREMONT QTR S/CENTRE;;6010;CLAREMONT       ;WA;Australia;08 9284 6622;;-31.981632;115.781288;
59;642;RIDOLFO'S FOR HAIR       ;;"SHOP 7 NORTH PERTH PLAZA 
FITZGERALD STREET        ";;6006;NORTH PERTH     ;WA;Australia;08 9227 7808    ;;-31.932079;115.859146;
60;642;RYAN WAUGH HAIRDRESSING;;6 PEELS PLACE;;6330;ALBANY          ;WA;Australia;08 9841 7070;;-35.025898;117.884888;
61;642;SACHI FOR HAIR           ;SACHI FOR HAIR;SHOP 1 FLOREAT FORUM S/CENTRE        ;;6014;FLOREAT         ;WA;Australia;08 9287 2511    ;;-31.939018;115.792213;
62;642;SACHI FOR HAIR           ;SACHI FOR HAIR;105A MIDLAND GATE SHOPPING CENTRE    ;;6056;MIDLAND         ;WA;Australia;08 9274 7914    ;;-31.888475;116.002937;
63;642;SACHI FOR HAIR-DIANELLA  ;SACHI FOR HAIR;"SHOP 57 DIANELLA PLAZA  
GROUND PROMENADE         ";;6059;DIANELLA        ;WA;Australia;08 9276 2624    ;;-31.89563;115.8722;
64;642;SALON 44;;44 GUGERI STREET;;6010;CLAREMONT       ;WA;Australia;08 9383 2831;;-31.980839;115.782135;
65;642;SAM RIFICI - KARRINYUP   ;SAM RIFICI;G74 KARRINYUP S/CENTRE;;6018;KARRINYUP       ;WA;Australia;08 9446 6445 ;;-31.875557;115.778816;
66;642;SAM RIFICI - WHITFORD   ;SAM RIFICI;SHOP 36 WHITFORD CITY S/CENTRE   ;;6025;WHITFORD;WA;Australia;08 9401 5606    ;;-31.799837;115.745682;
67;642;SAM RIFICI -FLOREAT PARK ;SAM RIFICI;SHOP 6 FLOREAT FORUM S/CENTRE;;6014;FLOREAT PARK    ;WA;Australia;08 9387 4664    ;;-31.93959;115.791168;
572;0;MARIE-FRANCES GROUP;;SHOP 10, PHILLIP MALL SHOPPING VILLAGE;KENDALL STREET;2073;WEST PYMBLE;NSW;Australia;02 9418 1055;;-33.760662;151.131042;
571;0;VANILAH;;6 CAMP STREET;;3350;BALLARAT;VIC;Australia;03 5333 4533;;-37.561543;143.859222;
70;642;THE SHEARING SHED        ;;SHOP 8 WILLIAM STREET        ;;6160;FREMANTLE       ;WA;Australia;08 9430 7499    ;;-32.053982;115.748665;
71;642;VALENTINO'S HAIR STUDIO  ;;SHOP 1066 CAROUSEL SCENTRE ;;6107;CANNINGTON      ;WA;Australia;08 9356 2838    ;;-32.020035;115.932846;
72;642;VIRGO'S HAIRDRESSING     ;;"SHOP 6 CRAGIE PLAZA
EDDYSTONE AVENUE         ";;6025;CRAIGIE         ;WA;Australia;08 9401 5303    ;;-31.784958;115.76767;
73;642;ZEDZ                     ;;329 CANNING HIGHWAY      ;;6157;PALMYRA         ;WA;Australia;08 9319 1016    ;;-32.036617;115.78479;
74;631;ABSOLUTELY FABULOUS;;SHOP 3 BENT STREET;;2070;LINDFIELD;NSW;Australia;02 9415 6410;;-33.774761;151.168076;
580;0;PERRIS;;SHOP 2094, LEVEL 2 FOUNTAIN GATE S;CENTRE,352 PRINCES HWY;3805;FOUNTAIN GATE;VIC;AUSTRALIA;;;-38.017971;145.304672;
76;631;ALLURE HAIR & BODY;;SHOP 4, 98 THE ESPLANADE;;2260;TERRIGAL;NSW;Australia;02 4384 4521;;-33.446121;151.443771;
77;631;ANTHONY LIPARI HAIRDRESSER;;8 WILLOUGHBY ROAD          ;;2065;CROWS NEST      ;NSW;Australia;02 9901 4111    ;;-33.827351;151.20076;
78;631;AQUA HAIR & BODY;;SHOP 20A THE JUNCTION FAIR S/CENTRE;;2291;NEWCASTLE ;NSW;Australia;02 4969 5112    ;;-32.926704;151.773239;
79;631;THE BELCASTRO HAIR;;9A CAMPBELL STREET           ;;2152;NORTHMEAD       ;NSW;Australia;02 9630 2972    ;;-33.788578;150.997238;
80;631;BLUE AFRO HAIR SKIN & BODY;;214 PITTWATER ROAD;;2095;MANLY           ;NSW;Australia;02 9976 5599;;-33.788025;151.284668;
81;631;BOFFA - BROOKVALE        ;BOFFA;SHOP 323 WARRINGAH MALL              ;;2100;BROOKVALE       ;NSW;Australia;02 9939 6933    ;;-33.767845;151.26268;
82;631;BOFFA - CHATSWOOD        ;BOFFA;SHOP 325 WESTFIELD S/CENTRE       ;;2067;CHATSWOOD       ;NSW;Australia;02 9413 4773    ;;-33.796078;151.183105;
83;631;BOFFA - ST IVES          ;BOFFA;SHOP 133 ST IVES SHOPPING CENTRE  ;;2075;ST IVES         ;NSW;Australia;02 9144 4262    ;;-33.729897;151.160965;
84;631;BUTLERS FOR HAIR;;SHOP 6, 27 GROSVENOR STREET;;2089;NEUTRAL BAY;NSW;Australia;02 9908 2922;;-33.830093;151.222;
610;0;CRANIUM;;CNR BELGRAVE & GILBERT STREETS;;2095;MANLY;NSW;Australia;02 9976 0211;;-33.87775;151.24321;
86;631;CLIPSO HAIRDRESSING;;SHOP 18, 100 EDINBURGH STREET;;2068;CASTLECRAG;NSW;Australia;02 9958 0170;;-33.802731;151.212204;
87;631;CORDONY - BROOKEVALE;CORDONY;SHOP 245 WARRINGAH MALL  ;;2100;BROOKEVALE;NSW;Australia;02 9905 7362    ;;-33.767845;151.26268;
88;631;CORDONY - WARRIEWOOD     ;CORDONY;SHOP 53 WARRIEWOOD SHOPPING SQUARE                   ;;2102;WARRIEWOOD      ;NSW;Australia;02 9913 8181    ;;-33.696949;151.29567;
89;631;CORDONY- NORTH RYDE      ;CORDONY;SHOP 29 MACQUARIE CENTRE   ;;2113;NORTH RYDE      ;NSW;Australia;02 9888 1002    ;;-33.77243;151.110443;
90;631;CUTTING POINT - BROADWAY;CUTTING POINT;SHOP 16 BROADWAY S/CENTRE, BAY STREET;;2007;BROADWAY;NSW;Australia;02 9212 4912;;-33.881878;151.194794;
91;631;CUTTING POINT -RHODES;CUTTING POINT;SHOP 11, RHODES SHOPPING CENTRE;;2138;RHODES;NSW;Australia;02 8765 9007;;-33.83086;151.08754;
92;631;D SALON HAIR & BEAUTY;;48 FLUSHCOMBE ROAD;;2148;BLACKTOWN;NSW;Australia;02 9676 2222;;-33.770996;150.908478;
93;631;DE JA VU;;SHOP 3, 57 CORNER BELLS LINE RD & GROSE VALE RD;;2754;NORTH RICHMOND;NSW;Australia;02 4571 1285;;-33.579872;150.719604;
94;631;DETAIL FOR MEN;;"SHOP 3 NORWICH HOUSE
6 O'CONNELL STREET";;2000;SYDNEY          ;NSW;Australia;02 9231 5999;;-33.864998;151.2099;
95;631;E SALON;;SHOP 7, 2 REDLEAF AVENUE;;2119;WAHROONGA;NSW;Australia;02 9487 8011;;-33.718781;151.117523;
613;0; PROFILE HAIR DESIGN;;SUITE 3/140 MARGARET STREET;;4350;TOOWOOMBA;QLD;AUSTRALIA;07 4638 2498;;-27.561695;151.955994;
97;631;ESCAPADE HAIR STUDIO     ;;8 RAILWAY PARADE         ;;2142;GRANVILLE       ;NSW;Australia;02 9682 7725    ;;-33.832638;151.011047;
98;631;FANATICS HAIR STUDIO     ;;PODIUM LEVEL, SKY CITY BUILDING A;;2153;BELLA VISTA;NSW;Australia;02 9680 4992    ;;-33.743938;150.958939;
99;631;FIRST AVENUE FOR HAIR;;"SHOP 7 GREENWOOD PLAZA
80 PACIFIC HIGHWAY       ";;2060;NORTH SYDNEY    ;NSW;Australia;02 9922 7766    ;;-33.840778;151.207718;
566;0;STEVEN PROFESSIONAL - BEULAH PARK;;315 THE PARADE;;5061;BEULAH PARK;SA;Australia;;;-34.920574;138.648804;
101;631;FRANK PROVAST PARIS;FRANK PROVAST;185 MACQUARIE STREET;;2000;SYDNEY          ;NSW;Australia;02 9232 0606 ;;-33.86694;151.212326;
102;631;FRANK PROVOST - CROWS NEST;;SHOP 5, 29 HOLTERMANN STREET;;2065;CROWS NEST      ;NSW;Australia;02 9439 8338;;-33.825008;151.202316;
103;631;FUZE;;57B BOUNDARY ROAD;;2830;DUBBO;NSW;Australia;02 6882 0942;;-32.268353;148.610046;
104;631;GALLERY 137              ;;137 SUMMER STREET          ;;2800;ORANGE          ;NSW;Australia;02 6361 4555    ;;-33.283073;149.097031;
105;631;GILLIAN ADAMS SALON & SPA;;1356 PACIFIC HIGHWAY         ;;2074;TURRAMURRA      ;NSW;Australia;02 9488 9944    ;;-33.733566;151.128433;
106;631;HAIR @ ROUGE;;139 VINCENT STREET;;2325;CESSNOCK;NSW;Australia;02 4991 6539;;-32.83646;151.35585;
107;631;HAIR BY PHD - PARRAMATTA ;;35 PHILLIP STREET        ;;2150;PARRAMATTA      ;NSW;Australia;02 9635 4721;;-33.8125;151.004181;
108;631;HAIR ESTEEM              ;;"SHOP 5/6 PENRITH CENTRE
CNR HIGH & STATION STREETS   ";;2750;PENRITH         ;NSW;Australia;02 4722 3250    ;;-33.75621;150.692291;
109;631;HAIR EUPHORIA - NORTH RYD;;LEVEL 2,SHOP 73 MACQUARIE CENTRE ;;2113;NORTH RYDE      ;NSW;Australia;02 9878 1906    ;;-33.77243;151.110443;
110;631;HAIR 'N' CARE  - BROOKVLAE          ;HAIR N CARE;SHOP 118 WARRINGAH MALL                 ;;2100;BROOKVALE       ;NSW;Australia;02 9939 6576;;-33.767845;151.26268;
111;631;HAIR N CARE - NORTH RYDE;HAIR N CARE;SHOP 81 MACQUARIE CENTRE                     ;;2113;NORTH RYDE      ;NSW;Australia;02 9888 2701    ;;-33.77243;151.110443;
112;631;JADORE HAIR;;148 DARBY STREET;;2800;COOKS HILL;NSW;Australia;02 4926 5211;;-32.931946;151.77121;
113;631;JUST LIBERATED;;SUITE 1, 88 PARK AVENUE;;2289;KOTARA;NSW;Australia;02 4957 5281;;-32.940262;151.7099;
115;631;KULTURE IN HAIR SERVICES ;;36 AVALON PDE            ;;2107;AVALON          ;NSW;Australia;02 9918 7634    ;;-33.635853;151.328262;
116;631;LA COUPE;;SHOP 27 STOCKLAND MALL;;2153;BAULKHAM HILLS;NSW;Australia;02 9688 7751;;-33.760674;150.993011;
117;631;LE RAUX;;SHOP 4 ASPECTS OF LEURA ARCADE, 166-168 LEURA MALL;;2780;LEURA;NSW;Australia;02 4784 3232;;-33.713715;150.33139;
118;631;LE SALON;;121 BEARDY STREET;;2358;ARMIDALE;NSW;Australia;02 6772 1997;;-30.513821;151.668182;
119;631;LOUIS HAIR CUTTING & COLOR SPECIALIST;;34 BURTON STREET             ;;2061;MILSONS POINT   ;NSW;Australia;02 9955 2010    ;;-33.846123;151.213257;
120;631;LUXE;;"SHOP G059 CHATSWOOD S/CENTRE
345 VICTORIA AVENUE";;2097;CHATSWOOD       ;NSW;Australia;02 9412 1244;;-33.734283;151.294785;
121;631;MADE IN PARIS HAIR-MOSMAN;;SHOP 1, 836 MILITARY ROAD        ;;2088;MOSMAN          ;NSW;Australia;02 9968 3109;;-33.828918;151.244217;
122;631;MANIPULATE HAIR & BEAUTY   ;;152 CLARENCE STREET;;2000;SYDNEY          ;NSW;Australia;02 9299 0707    ;;-33.869637;151.20546;
579;0;KESH HAIR AND BEAUTY;;296 ST KILDA ROAD;;3182;ST KILDA;VIC;AUSTRALIA;03 9537 3736;;-37.863987;144.985748;
124;631;PAUL CORBITT;;134 SYDNEY ROAD;;2094;FAIRLIGHT       ;NSW;Australia;02 9949 6009;;-33.795864;151.277145;
125;631;PLATINUM HAIR SALON;;SHOP 207, 801 PENNANT HILLS ROAD;;2118;CARLINGFORD;NSW;Australia;02 9871 2000;;-33.776131;151.052689;
126;631;PORTFOLIO HAIR;;1773 PITTWATER ROAD;;2103;MONA VALE       ;NSW;AUSTRALIA;02 9997 1343;;-33.676476;151.303528;
127;631;PRODIGY HAIR FACE BODY;;"SHOP 10-11 DEEWHY GRAND
15 - 19 PACIFIC PARADE";;2099;DEE WHY;NSW;Australia;02 9982 6364;;-33.754581;151.285461;
128;631;P'ZAZZ HAIR STUDIO;;1A BROUGHTON ROAD;;2064;ARTARMON;NSW;Australia;02 9419 3147;;-33.808796;151.184174;
129;631;RACHEL JONES BOUTIQUE SALON & SPA;;104 GLOVER STREET;;2088;MOSMAN          ;NSW;Australia;02 9904 9901;;-33.828373;151.230637;
130;631;RICHFIELD HAIRDRESSING;;7A LAWRENCE STREET           ;;2096;HARBORD         ;NSW;Australia;02 9905 4631    ;;-33.778061;151.285126;
131;631;ROCKET HAIR - MCMAHONS POINT;;144 BLUES POINT ROAD     ;;2060;MCMAHONS POINT  ;NSW;Australia;02 9922 3820    ;;-33.844193;151.204285;
132;631;RUSK INTERNATIONAL HAIR  ;;237 SYDNEY ROAD          ;;2094;FAIRLIGHT       ;NSW;Australia;02 9948 7269    ;;-33.795086;151.271515;
133;631;SALON ST IVES            ;;SHOP 5, ST IVES SHOPPING VILLAGE ;;2075;ST IVES         ;NSW;Australia;02 9449 7206    ;;-33.729897;151.160965;
134;631;SANCTUARY FOR HAIR       ;;SHOP 515, LEVEL 3, CASTLE TOWERS S/CENTRE  ;;2154;CASTLE HILL     ;NSW;Australia;02 9634 8985    ;;-33.732819;151.004959;
135;631;SANCTUARY FOR HAIR & BODY;;"SHOP 2016, LEVEL 2 WESTFIELD S/CENTRE
236 PACIFIC HIGHWAY";;2077;HORNSBY         ;NSW;Australia;02 9987 0700    ;;-33.705097;151.099442;
136;631;SLOANS OF LANE COVE;;119 LONGUEVILLE ROAD;;2066;LANE COVE       ;NSW;Australia;02 9420 4880;;-33.814442;151.169449;
137;631;STUDIO 500               ;;445 MILLER ST            ;;2062;CAMMERAY        ;NSW;Australia;02 9955 3842 ;;-33.822281;151.21048;
138;631;STYLZ - BROOKVALE        ;STYLZ;"SHOP 411 WARRINGAH MALL  
OLD PITTWATER ROAD";;2100;BROOKVALE       ;NSW;Australia;02 9907 3633    ;;-33.767845;151.26268;
139;631;STYLZ - CHATSWOOD        ;STYLZ;SHOP 237  WESTFIELD SHOPPING TOWN                ;;2067;CHATSWOOD       ;NSW;Australia;02 9410 0488    ;;-33.797729;151.183914;
140;631;STYLZ - HORSNBY          ;STYLZ;SHOP 1070, LEVEL 1 WESTFIELD S/CENTRE;;2077;HORNSBY         ;NSW;Australia;02 9476 6166    ;;-33.703159;151.100479;
141;631;STYLZ - TUGGERAH;STYLZ;SHOP 1046 WESTFIELD SHOPPING CENTRE;;2259;TUGGERAH;NSW;Australia;02 4352 3200;;-33.307209;151.419617;
142;631;STYLZ - PARRAMATTA       ;STYLZ;"SHOP 5014 WESTFIELD S/CENTRE
CHURCH STREET";;2150;PARRAMATTA      ;NSW;Australia;02 9635 4864    ;;-33.814304;151.003174;
143;631;STYLZ HAIRDRESSING       ;STYLZ;"KIOSK 362, SYDNEY CENTRAL PLAZA
PITT ST MALL, MARKET STREET";;2000;SYDNEY          ;NSW;Australia;02 9232 2166    ;;-33.87365;151.206894;
144;631;SUGAR SUITE;;SUITE 2, 2 HONEYSUCKLE DRIVE;;2300;NEWCASTLE ;NSW;Australia;02 4929 7777;;-32.925556;151.770233;
145;631;SUKI HAIRDRESSING - NEWCASTLE;;2 OCEAN STREET;;2300;NEWCASTLE ;NSW;Australia;02 4929 5077;;-32.928921;151.78569;
146;631;TAYLOR & COMPANY HAIRCUTTERS;;SHOP 1, 51 ETHEL STREET;;2092;SEAFORTH        ;NSW;Australia;02 9949 7774    ;;-33.797714;151.250839;
147;631;THE HAIRDRESSER;;SHOP 2, 93 GREENWICH RD        ;;2065;GREENWICH       ;NSW;Australia;02 9439 6397    ;;-33.831669;151.186218;
148;631;THE MAXX;;1 DENLEY LANE;;2075;ST IVES         ;NSW;Australia;02 9440 4053;;-33.729965;151.160446;
149;631;THE NEW BLACK SALON;;21 WOLFE STREET;;2300;NEWCASTLE ;NSW;Australia;02 4929 4400;;-32.927158;151.779892;
150;631;THE URBAN FRINGE         ;;"SHOP 3004 WESTFIELD S/CENTRE
PACIFIC HIGHWAY";;2077;HORNSBY         ;NSW;Australia;02 9477 7645;;-33.719547;151.115891;
151;631;TRUMPS ALTO EGO;;117 HARRINGTON STREET;;2000;SYDNEY          ;NSW;Australia;02 9299 7650;;-33.862202;151.206909;
152;631;WOOHOO SALON;;SUITE 2, 161-165 PACIFIC HIGHWAY;;2290;CHARLESTON;NSW;Australia;02 4947 8877;;-32.975468;151.71225;
153;631;XQUIZIT HAIR             ;;SHOP 3/P6, 201-205 PACIFIC HWY ;;2065;ST LEONARDS     ;NSW;Australia;02 9439 2991    ;;-33.82275;151.194672;
620;0;FRUITION HAIR;;ROWES ARCADE, SHOP 5, 215 ADELAIDE ST;;4000;BRISBANE;QLD;AUSTRALIA;07 3229 0103;;-27.48073;153.029221;
155;632;ALAN COBAN - BURWOOD;ALAN COBAN;"SHOP 159 WESTFIELD S/CENTRE
100 BURWOOD ROAD         ";;2134;BURWOOD         ;NSW;Australia;02 9747 0995    ;;-33.874523;151.104263;
156;632;ALAN COBAN  - BONDI JUNCTION    ;ALAN COBAN;SHOP 2008, LEVEL 2 WESTFIELD S/CENTRE  ;;2022;BONDI JUNCTION  ;NSW;Australia;02 9369 5858    ;;-33.892788;151.247223;
157;632;ANDREA CONNOLLY HAIRDRESSING;;SHOP 6, 376-382 New South Head Road;;2028;DOUBLE BAY      ;NSW;Australia;02 9326 1799    ;;-33.877415;151.243073;
158;632;ANGELO NASSO HAIRDRESSING;;7 MOORE STREET (CNR MOORE & BIGGE STREET);;2170;LIVERPOOL       ;NSW;Australia;02 9602 1384;;-33.921513;150.927155;
159;632;ARIA HAIR;;15 MARKET STREET;;2500;WOOLONGONG;NSW;Australia;02 4226 6255;;-34.424664;150.900528;
160;632;BRAD NGATA HAIR DIRECTION;BRAD NGATA HAIR DIRECTION;SHOP 2 PAILINGS LANE, THE IVY;;2000;SYDNEY          ;NSW;Australia;02 9235 2723;;-33.873314;151.20694;
161;632;BRAD NGATA HAIR DIRECTION;BRAD NGATA HAIR DIRECTION;273 GOULBURN STREET;;2010;SURRY HILLS     ;NSW;Australia;02 9281 1220 ;;-33.880108;151.214645;
162;632;CHARACTERS  HAIRCUTTERS       ;;"SHOP 67/C1 ROYAL RANDWICK S/CENTRE
BELMORE ROAD ";;2031;RANDWICK        ;NSW;Australia;02 9399 3135;;-33.915382;151.240494;
163;632;DANIELA SEVERI;;SHOP 23, LVL 1 BIRKENHEAD POINT S/CENTRE;;2047;DRUMMOYNE;NSW;Australia;02 9181 4099;;-33.852383;151.154892;
164;632;EDGE STUDIO;;"SHOP 8A AMP CENTRE
50 BRIDGE STREET";;2000;SYDNEY          ;NSW;Australia;02 9232 8757;;-33.87365;151.206894;
165;632;ELLE & MARKS;;SHOP 3, 456 ROCKY POINT ROAD;;2219;SANS SOUCI;NSW;Australia;02 9529 7775;;-33.990189;151.133713;
166;632;FMK ARTISTRIES           ;;SHOP 4, 140-144 POLDING STREET   ;;2165;FAIRFIELD HEIGHT;NSW;Australia;02 9604 5264    ;;-33.861984;150.938934;
167;632;FMK HAIR      ;;SHOP 103 STOCKLANDS, POLDING STREET;;2165;WETHERHILL PARK;NSW;Australia;02 9604 5264;;-33.856701;150.899017;
168;632;FOILS HAIR DESIGN        ;;179 GREAT NORTH ROAD     ;;2046;FIVE DOCK       ;NSW;Australia;02 9712 7838    ;;-33.866802;151.129974;
169;632;FUSION HAIR ARTISTRY     ;;158 NORTHUMBERLAND STREET    ;;2170;LIVERPOOL       ;NSW;Australia;02 9824 1440    ;;-33.921104;150.922958;
170;632;G & A HAIR ALLURE        ;;SUITE 7, 42 PARKSIDE CRESCENT, PARK CENTRAL;;2560;CAMPBELLTOWN;NSW;Australia;02 4628 8290    ;;-34.067776;150.813187;
171;632;GEORGE'S SALON;;SHOP 4, 200 THE BOULEVARDE;;2196;PUNCHBOWL;NSW;Australia;02 9759 0366;;-33.925972;151.057495;
172;632;GLOW                     ;;SHOP 1, 155 MACQUARIE STREET     ;;2000;SYDNEY          ;NSW;Australia;02 9247 2233    ;;-33.865334;151.212341;
173;632;GOULBURN QUICK SNIP SALON;;245A AUBURN ST           ;;2580;GOULBURN        ;NSW;Australia;02 4821 1701   ;;-34.751614;149.721222;
174;632;IRFAN HAIR DESIGN;;"NEWINGTON MARKETPLACE
SHOP 8, 6  EUROPE AVENUE";;2127;NEWINGTON;NSW;Australia;02 9737 9233;;-33.834175;151.056702;
175;632;IN MODE HAIR;;218 CLOVELLY ROAD;;2031;CLOVELLY;NSW;Australia;02 9665 1058;;-33.911568;151.253952;
176;632;IN STYLE HAIR;;SHOP 6, 26 DANKS STREET;;2070;WATERLOO;NSW;Australia;02 9698 2272;;-33.897522;151.214035;
177;632;JAMIE CARROLL PRODUCTIONS;;SHOP 1/266 PRINCES HWY   ;;2224;SYLVANIA HEIGHTS;NSW;Australia;02 9522 7914    ;;-34.017834;151.102463;
178;632;JEAN HADDAD HAIR STUDIO;;SHOP 10, 205 MERRYLANDS ROAD;;2160;MERRYLANDS      ;NSW;Australia;02 9637 2637;;-33.836376;150.989304;
179;632;KIM SUN YOUNG HAIR DESIGN - SYDNEY;KIM SUN YOUNG;"SHOP LG, 16A PAVILON PLAZA
580 GEORGE STREET        ";;2000;SYDNEY          ;NSW;Australia;02 9264 0707    ;;-33.874779;151.206741;
180;632;KIM SUN YOUNG HAIR & BEAUTY - SYDNEY;KIM SUN YOUNG;369 PITT STREET;;2000;SYDNEY          ;NSW;Australia;02 9267 7299    ;;-33.875973;151.207703;
181;632;KIM SUN YOUNG HAIR DESIGN - STRATHFIELD;KIM SUN YOUNG;SHOP 1, 39 THE BOULEVARDE      ;;2135;STRATHFIELD     ;NSW;Australia;02 9764 2611    ;;-33.873638;151.094055;
619;0;THE ART OF HAIR PENNANT HILLS;;1 WONGALA CRESCENT;;2119;BEECROFT;NSW;AUSTRALIA;02 9481 9474;;-33.750126;151.065582;
183;632;LIBERTY;;"SHOP 7-9 LEICHHARDT S/CENTRE
CNR MARION & FLOOD STREETS";;2040;LEICHHARDT;NSW;Australia;02 9564 2467 ;;-33.883778;151.157059;
578;0;SALON BAROQUE;;1A/100 GLADESVILLE BLVD;;3197;PATTERSON LAKE;VIC;AUSTRALIA;03 9773 2233;;-38.067081;145.144592;
185;632;MODA-MAZZEO HAIR CONCEPTS;;71 MAJORS BAY RD         ;;2137;CONCORD         ;NSW;Australia;02 9743 6422    ;;-33.855694;151.103531;
607;0;MASTER CUTTERZ HAIR STUDIO;;SHOP 13, 19-23 ARABIN STREET;;3036;KEILOR;VIC;Australia;03 9336 2482;;-27.497612;152.973679;
187;632;OZ HAIR - HURSTVILLE;OZ HAIR;SHOP 207 WESTFIELD SHOPPING CENTRE;;2220;HURSTVILLE      ;NSW;Australia;02 9585 1554;;-33.96711;151.102859;
188;632;OZ HAIR  -SYDNEY -QVB    ;OZ HAIR;QUEEN VICTORIA BUILDING SHOP 78 QVB WALK         ;;2000;SYDNEY          ;NSW;Australia;02 9264 6700    ;;-33.87365;151.206894;
189;632;OZ HAIR - MIRANDA        ;OZ HAIR;SHOP 2098 WESTFIELD SHOPPING TOWN  ;;2228;MIRANDA         ;NSW;Australia;02 9524 1172;;-34.034954;151.102173;
190;632;PEBBLE HAIR              ;;157 CAMPBELL STREET      ;;2010;SURRY HILLS     ;NSW;Australia;02 9211 4455    ;;-33.880676;151.213348;
191;632;PHILIPPE XAVIER HAIRDRESSING  ;;4 BRIDGE STREET;;2000;SYDNEY          ;NSW;Australia;02 9251 6666    ;;-33.863541;151.207596;
192;632;REVO STUDIO;;SHOP 3, 339 SUSSEX STREET;;2000;SYDNEY          ;NSW;Australia;02 9264 9311;;-33.875645;151.20433;
193;632;RIZK HAIRDRESSERS;;22 GLENMORE ROAD;;2021;PADDINGTON      ;NSW;Australia;02 9380 5483;;-33.883221;151.222412;
194;632;SALON EAST;;66 DARLING ST            ;;2041;BALMAIN         ;NSW;Australia;02 9810 2188    ;;-33.857533;151.193146;
195;632;SEVERI HAIR;;SHOP 10 GRACE HOTEL, 77 YORK STREET;;2000;SYDNEY          ;NSW;Australia;02 9299 2664;;-33.87365;151.206894;
196;632;STEFAN HAIR FASHION - SYDNEY;;"SHOP A08 - A09 THE GALLERIES
500 GEORGE STREET";;2000;SYDNEY          ;NSW;Australia;02 9261 4966;;-33.872395;151.207886;
197;632;STEFAN HAIR FASHION - MIRANDA;;"SHOP 1080 WESTFIELD SHOPPING CENTRE
600 KINGSWAY";;2228;MIRANDA         ;NSW;Australia;;;-34.034954;151.102173;
616;0;RUBI HAIR;;79A CHAPEL STREET;;3181;WINDSOR;VIC;AUSTRALIA;03 9529 8220;;-37.854858;144.992691;
617;0;LINEAR;;SHOP 6, 13-19 LAKES STREET;;3013;CAROLINE SPRINGS;VIC;AUSTRALIA;03 9687 3950;;-37.732521;144.741516;
199;632;STYLZ  - EASTGARDENS        ;STYLZ;SHOP 167 EASTGARDENS WESTFIELD S/CENTRE;;2035;PAGEWOOD        ;NSW;Australia;02 9349 5722    ;;-33.941792;151.21344;
200;632;STYLZ - BONDI JUNCTION   ;STYLZ;"SHOP 1017 WESTFIELD SHOPPING TOWN  
OXFORD STREET";;2022;BONDI JUNCTION  ;NSW;Australia;02 9387 6260    ;;-33.891781;151.247452;
201;632;STYLZ - HURSTVILLE       ;STYLZ;"SHOP 429 WESTFIELD S/CENTRE
PARK ROAD                ";;2220;HURSTVILLE      ;NSW;Australia;02 9570 2277    ;;-33.963654;151.103287;
202;632;STYLZ - MIRANDA          ;STYLZ;SHOP 3012 WESTFIELD SHOPPINGTOWN   ;;2228;MIRANDA         ;NSW;Australia;02 9524 1187;;-34.035023;151.097717;
203;632;SUKI  HAIRDRESSING - PADDINGTON;;447 OXFORD STREET;;2021;PADDINGTON      ;NSW;Australia;02 9360 3674;;-33.887913;151.231125;
204;632;THE CHELSEA WOLLONGONG   ;;9 GLOBE LANE             ;;2500;WOLLONGONG      ;NSW;Australia;02 4227 2220;;-34.425346;150.893814;
205;632;THE ULTIMATE HAIR CREW   ;;SHOP 4, 53 - 55 MIMOSA ROAD       ;;2176;BOSSLEY PARK    ;NSW;Australia;02 9823 4143    ;;-33.856678;150.891449;
206;632;TROY THOMPSON HAIRDRESSING;;SHOP 7/40 MACLEAY STREET;;2011;POTTS POINT;NSW;Australia;02 8668 4072;;-33.870293;151.225677;
207;632;US FOR HAIR & BODY;;1/14 DOVER ROAD;;2029;ROSE BAY;NSW;Australia;02 9371 6066;;-33.870155;151.270462;
569;0;CREAM MELBOURNE;;82 JOHNSTON STREET;;3065;FITZROY;VIC;Australia;03 9415 1717;;-37.798302;144.977295;
209;632;VEEV THE COLOUR SALON;;SHOP 3, 13 BEATTIE STREET;;2041;BALMAIN         ;NSW;Australia;02 9810 9200;;-33.85767;151.179947;
210;632;VELVET & BROWN HAIR STUDIO;;692 DARLING STREET;;2039;ROZELLE         ;NSW;Australia;;;-33.864262;151.169632;
211;632;VENUS COLLEGE;;LEVEL 3, 46-48 YORK STREET;;2000;SYDNEY          ;NSW;Australia;02 9262 2566;;-33.869484;151.206314;
212;632;VIBE;;36 WINGECARRIBEE STREET;;2576;BOWRAL;NSW;Australia;02 4861 3337;;-34.478897;150.419006;
213;632;WILLOW HAIR SPA;;SHOP 3, 125-129 BALGOWNIE ROAD;;2519;BALGOWNIE;NSW;Australia;02 4285 7555;;-34.38895;150.878311;
214;632;WINK! HAIR               ;;SHOP 4, 50-56 HUNTER STREET          ;;2000;SYDNEY          ;NSW;Australia;02 9222 2899    ;;-33.865868;151.209427;
215;633;HAY FATAL ATTRACTION H&B ;;417 BANK ST              ;;2711;HAY             ;NSW;Australia;02 6993 3007    ;;-34.509758;144.841751;
216;639;ADDICTIVE;;22 Prince St             ;;2460;GRAFTON         ;NSW;Australia;02 6643 4747    ;;-29.691683;152.933182;
217;639;MUDHONEY;;15 BROWNING STREET;;2480;BYRON BAY;NSW;Australia;02 6685 4005;;-28.6504;153.614594;
218;639;MULLET HAIR - COFFS HARBOUR;MULLET HAIR;37 LITTLE STREET;;2450;COFFS HARBOUR;NSW;Australia;02 6652 9441;;-30.298216;153.113693;
219;639;MULLET HAIR - LENNOX;MULLET HAIR;SHOP 2, 57 BALLINA STREET;;2478;LENNOX HEADS;NSW;Australia;02 6687 5566;;-28.796778;153.593582;
220;639;SALON MAGGIE G           ;;SHOP 2, 1 WHARF ST             ;;2485;TWEED HEADS     ;NSW;Australia;07 5536 3442    ;;-28.169582;153.543381;
221;633;ALDO'S HAIR & BEAUTY     ;ALDO'S;127 CHURCH ST            ;;3186;BRIGHTON        ;VIC;Australia;03 9592 2687    ;;-37.915478;144.996246;
222;633;ALDO'S HAIR SALON        ;ALDO'S;722 CENTRE RD            ;;3165;BENTLEIGH EAST  ;VIC;Australia;03 9570 1268    ;;-37.921131;145.058182;
223;633;AMICA HAIR               ;;48 MOUNT ELIZA WAY       ;;3930;MOUNT ELIZA     ;VIC;Australia;03 9787 1050    ;;-38.182579;145.090546;
224;633;AQUA HAIR & BEAUTY THERAPY;;21 RAILWAY PARADE;;3150;GLEN WAVERLEY   ;VIC;Australia;03 9802 8689;;-37.879044;145.162598;
225;633;ART HAIR STUDIO - BEAUMARIS;ART HAIR STUDIO;353 BALCOMBE ROAD;;3193;BEAUMARIS       ;VIC;Australia;03 9589 5988;;-37.97916;145.045197;
226;633;ART HAIR STUDIO-MORDI.   ;ART HAIR STUDIO;574 MAIN STREET             ;;3195;MORDIALLOC      ;VIC;Australia;03 9580 7733    ;;-38.006985;145.086273;
227;633;BAILEYS HAIR SALON;;2/1 BLUFF ROAD;;3193;BLACK ROCK;VIC;Australia;03 9589 5045;;-37.975182;145.016022;
228;633;BENDIGO BEAUTY & HAIRCARE;;62 BRIDGE STREET;;3550;BENDIGO         ;VIC;Australia;03 5441 5093;;-36.751251;144.285309;
229;633;BIBA SOUTH YARRA;;56 TOORAK ROAD;;3141;SOUTH YARRA     ;VIC;Australia;03 9867 8299;;-37.838642;144.988373;
230;633;BLUNT SALONS;;1236 HIGH STREET;;3143;ARMADALE        ;VIC;Australia;03 9500 9322;;-37.856682;145.027969;
577;0;FRANCK PROVOST MOSMAN;;SHOP 1, 803 MILITARY ROAD;;2388;MOSMAN;NSW;Australia;;;-33.830788;151.244385;
232;633;CAJ HAIRDRESSING         ;;193 BANK ST              ;;3205;SOUTH MELBOURNE ;VIC;Australia;03 9699 3173    ;;-37.834553;144.960541;
233;633;CAST                     ;;141 OSBORNE STREET;;3205;SOUTH YARRA     ;VIC;Australia;03 9821 5588;;-37.839443;144.991455;
235;633;D'ALTON HAIRDRESSING     ;;1423 TOORAK ROAD         ;;3124;CAMBERWELL      ;VIC;Australia;03 9889 5152    ;;-37.850307;145.095367;
236;633;DAME SALON;;427 BAY STREET;;3187;BRIGHTON        ;VIC;Australia;03 9596 6244;;-37.90593;145.006226;
237;633;DE NARDIS HAIR DESIGN    ;;SHOP 2, 181 - 183 BAY STREET;;3186;BRIGHTON        ;VIC;Australia;03 9599 8180;;-37.904732;144.998276;
238;633;DOMENIC'S HAIRDRESSING   ;;SHOP 2062 FOUNTAIN GATE S/CENTRE        ;;3805;FOUNTAIN GATE   ;VIC;Australia;03 9704 7443    ;;-38.021904;145.302155;
239;633;EDGE SALON               ;;"SHOP 275 THE GLEN SHOPPING CENTRE
SPRINGVALE ROAD";;3150;GLEN WAVERLEY   ;VIC;Australia;03 9803 3476    ;;-37.89782;145.16246;
240;633;EMMANUEL AMMO;;3C, 199 TOORAK ROAD;;3141;SOUTH YARRA     ;VIC;Australia;03 9826 3082;;-37.839149;144.993729;
241;633;ESCAPE HAIR DESIGN       ;;464 GLENHUNTLY RD       ;;3185;ELSTERNWICK     ;VIC;Australia;03 9532 8372    ;;-37.885105;145.007324;
242;633;FOXY VIXEN HAIR & BEAUTY;;150 BRIDPORT STREET;;3205;ALBERT PARK     ;VIC;Australia;03 9682 4422;;-37.840523;144.954987;
243;633;FRANKEL SALON            ;;757 HIGH ST              ;;3143;ARMADALE        ;VIC;Australia;03 9509 9014    ;;-37.854424;145.011963;
244;633;G SALON                  ;;1262 HIGH ST             ;;3143;ARMADALE        ;VIC;Australia;03 9500 9400    ;;-37.856621;145.028732;
245;633;GLOSS HAIR & BEAUTY;;40 WELLS STREET;;3199;FRANKSTON       ;VIC;Australia;03 9769 6107;;-38.143501;145.123596;
246;633;HAN HAIR & BEAUTY;;133 KOORNANG ROAD        ;;3163;CARNEGIE        ;VIC;Australia;03 9571 1211;;-37.888752;145.057053;
247;633;HELMUT HAIR STUDIO       ;;101 VICTORIA AVENUE      ;;3206;ALBERT PARK     ;VIC;Australia;03 9690 6227    ;;-37.844894;144.95108;
248;633;HOLLYWOOD CUTTERS;;230-232 BALACLAVA ROAD;;3161;CAULFIELD NORTH;VIC;Australia;03 9509 8600;;-37.872292;145.023911;
249;633;INTAGLIO HAIR DESIGN     ;;SHOP 43, 110 WATTLETREE ROAD      ;;3144;MALVERN         ;VIC;Australia;03 9576 0144    ;;-37.862976;145.02713;
250;633;JOOLS FOR JIM            ;;68 PALL MALL;;3550;BENDIGO         ;VIC;Australia;03 5442 3577    ;;-36.7584;144.280991;
251;633;K & L's HAIR HOUSE               ;;126 QUEEN ST             ;;3550;BENDIGO         ;VIC;Australia;03 5441 7999;;-36.764153;144.275864;
252;633;KAYE RUBI HAIRDRESSING;;79 CHAPEL STREET;;3181;PRAHRAN;VIC;Australia;03 9529 8220;;-37.854862;144.992691;
253;633;KOH;;86 ORMOND RD             ;;3184;ELWOOD          ;VIC;Australia;03 9531 0088    ;;-37.885254;144.987045;
254;633;LADY MARMALADE - PRAHAN          ;LADY MARMALADE;3 CARLTON ST             ;;3181;PRAHRAN         ;VIC;Australia;03 9533 2223    ;;-37.84771;144.994354;
255;633;LADY MARMALADE BEAUMARIS;LADY MARMALADE;22 EAST CONCORSE;;3193;BEAUMARIS       ;VIC;Australia;03 9589 4943;;-37.986309;145.034897;
256;633;LANGWARRIN DESIGN LINE   ;;SHOP 2, 52 TURNER RD           ;;3910;LANGWARRIN      ;VIC;Australia;03 9789 5696    ;;-38.150208;145.183029;
257;633;LATTOUF INTERNATIONAL - CHADSTONE;;"SHOP B163 CHADSTONE S/CENTRE
1341 DANDENONG ROAD";;3148;CHADSTONE       ;VIC;Australia;03 9569 4255;;-37.887707;145.080048;
258;633;LIBINSKI HAIRDRESSERS;;88 MAUDE STREET;;3630;SHEPPARTON;VIC;Australia;03 5822 2692;;-36.374897;145.401627;
611;0;THE SALON ON ASQUITH;;2/33 ASQUITH STREET;;6010;MOUNT CLAREMONT;WA;Australia;08 9385 0433;;-33.798458;151.284683;
260;633;THE HAIR STUDIO;;SHOP 2, 318 MAIN STREET;;3030;POINT COOK;VIC;Australia;03 9397 5983;;-37.884144;144.736618;
261;633;MARITA WILLET H/DRESSING ;;SHOP 11, CENTREWAY ARCADE         ;;3550;BENDIGO         ;VIC;Australia;03 5441 2278    ;;-36.760403;144.281158;
575;0;FRANCK PROVOST MANLY;;36-38 SYDNEY ROAD;;2095;MANLY;NSW;Australia;;;-33.796997;151.286392;
573;0;BACH HAIR;;131 Honour Avenue;;4068;Chelmer;QLD;Australia;;;-27.512741;152.972382;
264;633;RENIK HAIR & BEAUTY      ;;103 MITCHELL STREET      ;;3550;BENDIGO         ;VIC;Australia;03 5443 7051    ;;-36.76289;144.28241;
265;633;ROBBIE BARKER  HAIR      ;;474 TOORAK RD            ;;3142;TOORAK          ;VIC;Australia;03 9826 5500    ;;-37.84148;145.0103;
266;633;SALON BLISS;;THE REAR 26 LOCHIEL AVE  ;;3934;MT MARTHA;VIC;Australia;03 5974 2956;;-38.26746;145.013458;
267;633;SALON TONIK STYLISTS     ;;SHOP 4-5, SAFEWAY S/CENTRE, 117 ACLAND ST;;3182;ST KILDA        ;VIC;Australia;03 9534 7926    ;;-37.868553;144.979248;
268;633;SAS;;179 BARKLY STREET        ;;3182;ST KILDA        ;VIC;Australia;03 9534 4315       ;;-37.868122;144.980911;
269;633;SAS HAIRDRESSING;;SHOP 8, 92-98 EVANS STREET;;3429;SUNBURY;VIC;Australia;03 9744 1962;;-37.581215;144.728058;
270;633;SIMROD HAIR & BEAUTY STUDIO;;151 CARLISLE STREET;;3183;BALACLAVA;VIC;Australia;03 9531 7868;;-37.868633;144.991852;
570;0;STATION 95;;95 WALKERVILLE TERRACE;;5081;WALKERVILLE;SA;Australia;08 8262 4007;;-34.89624;138.615814;
272;633;THE HAIR REFINERY;;SUITE 7, LEVEL 1, 38A MAIN STREET;;3931;MORNINGTON      ;VIC;Australia;03 5977 1022;;-38.21769;145.037521;
273;633;TOMARS HAIR & BEAUTY     ;;416 CENTRE ROAD;;3204;BENTLEIGH       ;VIC;Australia;03 9563 9790    ;;-37.918339;145.037506;
274;633;VAIN HAIR & BEAUTY;;13 MURPHY STREET         ;;3677;WANGARATTA      ;VIC;Australia;03 5722 4792    ;;-36.356201;146.324905;
275;633;TEMPO HAIR;;108 NEPEAN HIGHWAY;;3194;MENTONE         ;VIC;Australia;03 9585 8222;;-37.981277;145.069946;
276;633;WEISELMANN ;WEISELMANN;SHOP 1, 305 TOORAK ROAD;;3141;SOUTH YARRA     ;VIC;Australia;03 9827 6899;;-37.839603;144.997269;
277;633;WIESELMANN OF TOORAK     ;WEISELMANN;SHOP 4-5, 1 GRANGE ROAD            ;;3142;TOORAK          ;VIC;Australia;03 9826 1706    ;;-37.840816;145.010635;
278;634;ACCENT HAIR ;;LEVEL 1, 423 LITTLE COLLINS ST    ;;3000;MELBOURNE       ;VIC;Australia;03 9670 2418;;-37.816181;144.960678;
279;634;22 SOHO HAIR;;22 RUSSELL STREET;;3040;ESSENDON        ;VIC;Australia;03 9370 0057;;-37.75568;144.916458;
280;634;ABBY HAIR & COLOUR;;114 SNELL GROVE;;3046;OAK PARK;VIC;Australia;03 9300 1130;;-37.717491;144.922516;
281;634;ANTHONY'S HAIR & BEAUTY -  ALTONA GATE;ANTHONY'S HAIR & BEAUTY;"LEVEL 2 ALTONA GATE S/CENTRE  
MILLERS ROAD";;3025;ALTONA GATE     ;VIC;Australia;03 9315 1466    ;;-37.835114;144.823624;
282;634;ANTHONY'S HAIR & BEAUTY - MARIBYRNONG ;ANTHONY'S HAIR & BEAUTY;"HIGHPOINT S/CENTRE
SHOP 2059, 200 ROSAMOND ROAD (Level 2)";;3032;MARIBYRNONG     ;VIC;Australia;03 9317 7288;;-37.773682;144.88945;
283;634;ANTHONY'S HAIR & BEAUTY  - MOONEE PONDS;ANTHONY'S HAIR & BEAUTY;63 PUCKLE STREET             ;;3039;MOONEE PONDS    ;VIC;Australia;03 9375 2555    ;;-37.766968;144.92247;
284;634;BAILEY YOUNG HAIRDRESSING  ;;117 PLEASANT ST          ;;3350;BALLARAT CENTRAL;VIC;Australia;03 5331 5133    ;;-37.563614;143.838608;
285;634;BESAME STUDIO - EAST KEILOR;BESAME STUDIO;50 WINGARA AVENUE;;3032;EAST KEILOR;VIC;Australia;;;-37.73299;144.867554;
286;634;BESAME STUDIO -- NIDDRIE;BESAME STUDIO;485A KEILOR ROAD;;3042;NIDDRIE;VIC;Australia;;;-37.736031;144.888855;
287;634;BESAME STUDIO - SOMERVILLE;BESAME STUDIO;347 SOMERVILLE ROAD;;3912;SOMERVILLE;VIC;Australia;;;-38.227455;145.200623;
288;634;BESAME STUDIO - KEILOR;BESAME STUDIO;SHOP 4, 662 OLD CALDER HIGHWAY;;3036;KEILOR;VIC;Australia;03 9331 5118;;-37.720474;144.837723;
608;0;OSCAR OSCAR CHERMSIDE;;SHOP 322, WESTFIELD SHOPPING CENTRE;CNR GYMPIE & HAMILTON RDS;4032;CHERMSIDE;QLD;Australia;07 3359 7799;;-37.71888;144.835876;
290;634;CAST                     ;;23 BEST ST               ;;3068;FITZROY NORTH   ;VIC;Australia;03 9486 1626    ;;-37.784035;144.983063;
581;0;GROOM SPA;;49 SPRING STREET;;3000;MELBOURNE;VIC;AUSTRALIA;;;-37.813969;144.974197;
292;634;COCOHONEY SALON;;188 VICTORIA STREET;;3011;SEDDON;VIC;Australia;03 9689 2121;;-37.80648;144.891571;
293;634;ESPIRIT HAIR - DOCKLANDS;ESPIRIT HAIR;19 STAR CRESCENT (CNR STUDIO LANE);;3008;DOCKLANDS;VIC;Australia;03 9602 5252;;-37.81348;144.93811;
294;634;ESPIRIT HAIR -MELBOURNE;ESPIRIT HAIR;"SHOP TG21 GOLDSBOROUGH LANE
500 BOURKE STREET (CORNER WILLIAM STREET)";;3000;MELBOURNE       ;VIC;Australia;03 9607 5656;;-37.815002;144.957977;
295;634;FORECAST HAIRDRESSING    ;;ROYAL ARCADE, 331-335 BOURKE ST        ;;3000;MELBOURNE       ;VIC;Australia;03 9650 2944    ;;-37.815208;144.963943;
296;634;HAIR TO GO ;;289 FLINDERS LANE;;3000;MELBOURNE       ;VIC;Australia;03 9654 8439;;-37.817188;144.964966;
297;634;HAIRROOM BROADMEADOWS    ;;SHOP G49 BROADMEADOWS S/CENTRE         ;;3047;BROADMEADOWS    ;VIC;Australia;03 9309 9784    ;;-37.666325;144.946747;
298;634;HEADLINES SALON - AUSTRALIA ON COLLINS;;LEVEL 3, 260 COLLINS STREET;;3000;MELBOURNE       ;VIC;Australia;03 9654 4303;;-37.815968;144.965225;
299;634;J'VONS;;SHOP 6, 30 ENGLISH STREET;;3041;ESSENDON FIELDS;VIC;Australia;03 9374 3339;;-37.72702;144.895844;
300;634;KINGS HAIRDRESSING       ;;SHOP 144A, LEVEL 1, 300 LONSDALE STREET      ;;3000;MELBOURNE       ;VIC;Australia;03 9663 8359    ;;-37.81142;144.963501;
301;634;KOH HAIRCUTTERS          ;;41 ANDERSON STREET       ;;3013;YARRAVILLE      ;VIC;Australia;03 9696 5359    ;;-37.81678;144.89035;
302;634;KOSA HAIR STUDIO         ;;SHOP 10 WATERGARDENS S/CENTRE         ;;3038;TAYLORS LAKES   ;VIC;Australia;03 9449 2121    ;;-37.701942;144.79715;
303;634;LATTOUF INTER VIC GARDNS ;LATTOUF INTERNATIONAL;SHOP G51 VICTORIA GARDENS S/CENTRE     ;;3121;RICHMOND        ;VIC;Australia;03 9428 5211    ;;-37.816631;144.965378;
304;634;LATTOUF INTERNATIONAL MELTON;LATTOUF INTERNATIONAL;SHOP T60 WOODGROVE S/CENTRE;;3337;MELTON          ;VIC;Australia;03 9743 0833;;-37.68298;144.58046;
305;634;LATTOUF INTERNATIONAL SPENCER STREET;LATTOUF INTERNATIONAL;"SOUTHERN CROSS STATION
SHOP T46, LEVEL 1, 201 SPENCER STREET";;3000;MELBOURNE       ;VIC;Australia;03 8689 7624;;-37.815304;144.952271;
306;634;LATTOUF INTERNATIONAL WATERGARDENS;LATTOUF INTERNATIONAL;"SHOP T122 WATERGARDENS S/CENTRE
399 MELTON HIGHWAY";;3038;TAYLORS LAKES   ;VIC;Australia;03 8390 7322;;-37.699837;144.776077;
307;634;LINCOLN SALON            ;;74 LINCOLN ROAD           ;;3040;ESSENDON        ;VIC;Australia;03 9379 4387    ;;-37.745892;144.909943;
618;0;THE ART OF HAIR BREAKFAST POINT;;SHOP 1, 10-20 MARKET STREET;;2137;BREAKFAST POINT;NSW;AUSTRALIA;02 8765 8055;;-33.841511;151.108902;
309;634;LINEAR 2 HAIR & BEAUTY   ;;SHOP 66, WERRIBEE PLAZA, HEATHS ROAD        ;;3030;WERRIBEE;VIC;Australia;03 9748 2244    ;;-37.877087;144.679276;
310;634;LINEAR HAIRDRESSING      ;;"SHOP 54, WERRIBEE PLAZA S/C    
CNR DERRIMUT & HEATHS ROAD";;3030;HOPPERS CROSSING;VIC;Australia;03 9748 9595    ;;-37.877617;144.682755;
311;634;LORENZ HAIRDRESSING;;SHOP 3037, HIGHPOINT S/CENTRE, ROSAMOND ROAD;;3032;MARIBYRNONG     ;VIC;Australia;03 9317 3615       ;;-37.772305;144.886093;
312;634;MAESTRO HAIRDRESSING -PORT MELBOURNE;;163 BAY STREET;;3207;PORT MELBOURNE  ;VIC;Australia;03 9646 5054;;-37.839657;144.941147;
576;0;GROOM SPA;;49 SPRING STREET;;3000;MELBOURNE;VIC;Australia;03 9650 6261;;36.059299;-91.90519;
314;634;MAESTRO HAIRDRESSING - ALTONA;MAESTRO HAIRDRESSING;81 PIER STREET;;3018;ALTONA;VIC;Australia;03 9398 5111;;-37.867729;144.830429;
315;634;MAESTRO HAIRDRESSING YARRAVILLE;MAESTRO HAIRDRESSING;22 ANDERSON STREET;;3013;YARRAVILLE      ;VIC;Australia;03 9687 3438;;-37.816505;144.890686;
316;634;MARIO PAUL DEL GROSSO    ;;195 NELSON PLACE        ;;3016;WILLIAMSTOWN    ;VIC;Australia;03 9397 1967    ;;-37.862583;144.902557;
317;634;MAKARDI SALON;;SHOP 67, 14-16 HALL STREET;;3039;MOONEE PONDS;VIC;Australia;03 9428 8608;;-37.765987;144.923111;
318;634;MISS STEVIE HAIR STUDIO;;SHOP 5, 49 CHERRY STREET;;3030;WERRIBEE;VIC;Australia;03 9974 1158;;-37.899708;144.664505;
319;634;RAKIS ON COLLINS    ;;FLOOR 2,  178 COLLINS ST     ;;3003;MELBOURNE       ;VIC;Australia;03 9654 6958;;-37.815094;144.967621;
320;634;RIXON HAIRDRESSING       ;RIXON HAIRDRESSING;110A MOORABOOL ST        ;;3220;GEELONG         ;VIC;Australia;03 5222 2366    ;;-38.147926;144.360229;
321;634;RIXONS ON PAKINGTON      ;RIXON HAIRDRESSING;139 PAKINGTON ST         ;;3218;GEELONG WEST    ;VIC;Australia;03 5221 5611    ;;-38.140205;144.348267;
322;634;RIXONS RIVEREND          ;RIXON HAIRDRESSING;SHOP 8, 346-350 PAKINGTON STREET   ;;3220;GEELONG         ;VIC;Australia;03 5221 6300    ;;-38.157974;144.345154;
323;634;RIXONS TORQUAY;RIXON HAIRDRESSING;SHOP 2 & 3, 16 GILBERT STREET;;3228;TORQUAY;VIC;Australia;03 5261 7311;;-38.33186;144.324387;
324;634;RUBEN HAIR DESIGN        ;;37A ROSE STREET          ;;3032;ESSENDON        ;VIC;Australia;03 9337 0339    ;;-37.75584;144.915405;
325;634;MOSHKA HAIR & BEAUTY;;SHOP 2, 62 THE TERRACE;;3226;OCEAN GROVE;VIC;Australia;03 5255 4443;;-38.26812;144.522079;
326;634;MYSTIQUE CREATIONS;;775 PASCOE VALE ROAD;;3046;GLENROY;VIC;Australia;03 9304 4400;;-37.705326;144.915802;
327;634;SERI HAIR, BEAUTY & CLINIC;SERI HAIR;SHOP 4, 180 RUSSELL STREET;;3000;MELBOURNE       ;VIC;Australia;03 9654 3772;;-37.811962;144.968323;
328;634;SERI HAIR, BEAUTY & WEDDING ;SERI HAIR;SHOP 154, 211 LATROBE STREET       ;;3000;MELBOURNE       ;VIC;Australia;03 9663 8824    ;;-37.810104;144.96283;
567;0;ESPIRIT HAIR & DAY SPA;;Level 1, 289 FLINDERS LANE;;3000;MELBOURNE;VIC;Australia;03 9654 8439;;-37.817188;144.964966;
330;634;SHINE HAIRDRESSING       ;;51 ROBERTS AVENUE          ;;3400;HORSHAM         ;VIC;Australia;03 5381 1827    ;;-36.714432;142.197861;
331;634;SOHO - CASEY LENAGHAN;;204 GRANT STREET;;3350;BALLARAT;VIC;Australia;03 5338 8855;;-37.568752;143.860641;
332;634;THE CUTTING EDGE         ;;123-125 SYDNEY ROAD      ;;3056;BRUNSWICK       ;VIC;Australia;03 9387 8200       ;;-37.774578;144.96051;
333;634;RAW EDGE HAIR & BEAUTY;;386 HIGH STREET;;3070;NORTHCOTE       ;VIC;Australia;03 9481 0144;;-37.768696;144.999268;
334;634;VANITY                   ;;"SHOP 45 CENTRAL SQUARE S/CENTRE
MERTON ROAD              ";;3028;ALTONA MEADOWS  ;VIC;Australia;03 9360 7330       ;;-37.874168;144.777191;
335;634;VANITY HAIR & BEAUTY SALON;;"SHOP 17 & 18 SHOWGROUNDS VILLAGE S/CENTRE
320-380 EPSOM ROAD";;3032;ASCOT VALE;VIC;Australia;03 9372 5546;;-37.783096;144.916412;
336;634;VOIR HAIRDRESSING;;LEVEL 1, 150 SWANSTON STREET;;3000;MELBOURNE       ;VIC;Australia;03 9654 8892;;-37.814144;144.966064;
337;634;VUDA HAIR, BODY, BEAUTY;;6 MUNRO STREET;;3058;COBURG;VIC;Australia;03 9350 2111;;-37.74485;144.9655;
338;634;XIANG HAIR STUDIO        ;XIANG HAIR STUDIO;LEVEL 1, 28 ALBERT COATES LANE QV2;;3000;MELBOURNE       ;VIC;Australia;03 9663 2662;;-37.815208;144.963943;
339;634;XIANG HAIR STUDIO-ESSENDON;XIANG HAIR STUDIO;SHOP 4, 1096 MOUNT ALEXANDER ROAD;;3040;ESSENDON        ;VIC;Australia;03 9374 3744    ;;-37.745708;144.911438;
340;656;A'BLAZE HAIR ARTISTRY    ;;SHOP 5, 1565 FERNTREEGULLY ROAD  ;;3180;KNOXFIELD       ;VIC;Australia;03 9763 3360    ;;-37.894855;145.249435;
341;656;ANTHONY NITSON HAIR      ;;130 AYR ST               ;;3108;DONCASTER       ;VIC;Australia;03 9850 6350    ;;-37.776688;145.103882;
342;656;CHERISE DE COIFFURE           ;;111 BULLEEN RD           ;;3104;BALWYN NORTH    ;VIC;Australia;03 9859 4144    ;;-37.784397;145.07724;
343;656;CUTS BOTH WAYS;;918 GLENFERRIE ROAD;;3101;KEW;VIC;Australia;03 9818 1318;;-37.808113;145.038177;
344;656;DUESENBERG               ;;235 WHITEHORSE ROAD      ;;3103;BALWYN          ;VIC;Australia;03 9817 4656;;-37.812073;145.075912;
345;656;EYE 4 U                  ;;62 MOUNT STREET          ;;3084;HEIDELBERG      ;VIC;Australia;03 9456 9968       ;;-37.757568;145.06192;
346;656;FRATELLE HAIR & MAKE UP - CAMBERWELL;FRATELLE HAIR & MAKE UP;740 BURKE ROAD            ;;3124;CAMBERWELL      ;VIC;Australia;03 9882 4188    ;;-37.825615;145.057922;
347;656;FRATELLE HAIR & MAKE UP -WHEELERS HILL ;FRATELLE HAIR & MAKE UP;"SHOP 20 WHEELERS HILL S/CENTRE
190 JELLS ROAD           ";;3150;WHEELERS HILL   ;VIC;Australia;03 9562 1933    ;;-37.909874;145.189514;
348;656;FRATELLE HAIR & MAKEUP - MOUNT WAVERLY  ;FRATELLE HAIR & MAKE UP;411 BLACKBURN ROAD       ;;3149;MOUNT WAVERLY   ;VIC;Australia;03 9886 5504    ;;-37.891064;145.144302;
603;0;ALFREDTON HAIR & BEAUTY;;1777 STURT STREET;;3350;BALLARAT;VIC;AUSTRALIA;03 5334 2238;;-37.550724;143.80658;
350;656;GOOD MORNING HAIR -BOX HILL;GOOD MORNING HAIR;SHOP 5, 15 BANK STREET;;3128;BOX HILL;VIC;Australia;03 9898 7002;;-37.819324;145.124283;
351;656;GOOD MORNING HAIR -CARLTON;GOOD MORNING HAIR;466 SWANSTON STREET;;3053;CARLTON         ;VIC;Australia;03 9347 6245;;-37.806042;144.96315;
352;656;HAIR BY YVES;;SHOP 2, 149 UPPER HEIDELBERG ROAD;;3079;IVANHOE;VIC;Australia;03 9499 2484;;-37.768127;145.042557;
353;656;HAIR CLUB- FOREST HILL   ;;SHOP 233, LEVEL 2 FOREST HILL S/CENTRE          ;;3131;FOREST HILL     ;VIC;Australia;03 9894 2281    ;;-37.837025;145.164841;
354;656;HEADING OUT;HEADING OUT;225 BRUNSWICK ST         ;;3065;FITZROY         ;VIC;Australia;03 9419 1448    ;;-37.800621;144.977966;
355;656;HEADING OUT - ACADEMY;HEADING OUT;131 JOHNSON STREET;;3065;FITZROY;VIC;Australia;03 9416 4558;;-37.798325;144.979477;
356;656;HEADING OUT - BOURKE STREET;HEADING OUT;SHOP 6, 95 BOURKE STREET;;3000;MELBOURNE       ;VIC;Australia;03 9654 0644;;-37.81308;144.970703;
357;656;HEADING OUT - CAMBERWELL ;HEADING OUT;706 BURKE ROAD            ;;3124;CAMBERWELL      ;VIC;Australia;03 9804 0244       ;;-37.827396;145.057602;
358;656;HEADING OUT -BALYWN      ;HEADING OUT;SHOP 1, 74 DONCASTER ROAD          ;;3104;BALWYN NORTH    ;VIC;Australia;03 9859 1555    ;;-37.79319;145.071838;
359;656;HEADING OUT- GPO     ;HEADING OUT;"SHOP M04 MEZZANINE LEVEL 
CNR BOURKE & ELIZABETH ST";;3000;MELBOURNE       ;VIC;Australia;03 9663 7434    ;;-37.808807;144.960587;
628;0;PORTFOLIO HAIR;;1773 PITTWATER ROAD;;2103;MONA VALE;NSW;AUSTRALIA;02 9997 1343;;-33.676476;151.303528;
361;656;KHAYAAM HAIR SALON;;274 RAYMOND STREET;;3850;SALE;VIC;Australia;03 5144 5253;;-38.106888;147.065872;
362;656;KUTRIZE HAIR DESIGN      ;;389E BELMORE RD          ;;3129;BALWYN EAST     ;VIC;Australia;03 9857 4748    ;;-37.803623;145.101746;
363;656;LATTOUF INTERNATIONAL - GREENSBOROUGH;LATTOUF INTERNATIONAL;SHOP 344, LEVEL 3 GREENSBOROUGH PLAZA      ;;3088;GREENSBOURGH    ;VIC;Australia;03 9434 5993    ;;-37.705956;145.08963;
364;656;LATTOUF ;LATTOUF INTERNATIONAL;SHOP 1023 WESTFIELD SHOPPING TOWN    ;;3108;DONCASTER       ;VIC;Australia;03 9848 4545    ;;-37.788727;145.123581;
365;656;LATTOUF INTERNATIONAL- EAST PRESTON;LATTOUF INTERNATIONAL;50 MURRAY ROAD;;3072;EAST PRESTON;VIC;Australia;03 9470 5911 ;;-37.738956;145.029846;
366;656;LE SALON  - FOREST HILL  ;;37 MAHONEYS RD           ;;3131;FOREST HILLS    ;VIC;Australia;03 9878 2180    ;;-37.82391;145.176224;
367;656;MADD-NESS HAIR DESIGN - BUNDOORA;;2 ANDREW PLACE              ;;3083;BUNDOORA        ;VIC;Australia;03 9467 7222    ;;-37.701054;145.072205;
368;656;MADD-NESS HAIR DESIGN - BUNDOORA   ;;SHOP 3, 2 JANEFIELD DRIVE - UNI HILL;;3083;BUNDOORA        ;VIC;Australia;03 9467 7000;;-37.69706;145.059006;
369;656;MIEKA HAIRDRESSING;;308 SMITH STREET;;3066;COLLINGWOOD     ;VIC;Australia;03 9416 5026;;-37.800045;144.984177;
370;656;MOSCATO HAIR & BEAUTY;;218 VICTORIA STREET;;3003;WEST MELBOURNE;VIC;Australia;03 9326 7722;;-37.805466;144.953613;
371;656;NARA HAIR;;203 LONSDALE STREET;;3000;MELBOURNE       ;VIC;Australia;03 9650 2210;;-37.811264;144.96637;
372;656;NEW IMAGE SALON          ;;SHOP 2092 KNOX CITY SHOPPING CENTRE;;3152;WANTIRNA        ;VIC;Australia;03 9887 2311    ;;-37.860817;145.238724;
373;656;PERRI'S - CHADSTONE      ;PERRI'S;SHOP 260 CHADSTONE S/CENTRE   ;;3148;CHADSTONE       ;VIC;Australia;03 9563 3100    ;;-37.885986;145.078461;
374;656;PERRI'S - KNOX CITY      ;PERRI'S;SHOP 2049 KNOX CITY S/CENTRE  ;;3152;WANTIRNA SOUTH  ;VIC;Australia;03 9887 2633    ;;-37.869949;145.237091;
375;656;PERRI'S -HIGHPOINT       ;PERRI'S;SHOP T002 HIGHPOINT S/CENTRE ;;3032;MARIBYRNONG     ;VIC;Australia;03 9318 4988    ;;-37.769192;144.885193;
376;656;PERRI'S-ARMADALE         ;PERRI'S;1131 HIGH ST             ;;3143;ARMADALE        ;VIC;Australia;03 9804 3021    ;;-37.856022;145.025421;
377;656;RAW ELEMENT              ;;333 DRUMMOND STREET;;3053;CARLTON         ;VIC;Australia;03 9347 1347    ;;-37.798061;144.968185;
378;656;ROOM 53                  ;;51-53 LYGON STREET;;3057;BRUNSWICK EAST  ;VIC;Australia;03 9387 5144    ;;-37.777531;144.970642;
379;656;ROXBURY HAIR             ;;62 MALING ROAD           ;;3126;CANTERBURY      ;VIC;Australia;03 9836 7999    ;;-37.825363;145.080719;
380;656;SAJE HAIRCUTTERS         ;;65 DONCASTER RD          ;;3104;BALWYN NORTH    ;VIC;Australia;03 9859 1935    ;;-37.792583;145.070953;
381;656;SCAFFIDI HAIR DESIGN     ;;83-85 MAIN ROAD          ;;3093;LOWER PLENTY    ;VIC;Australia;03 9434 5262    ;;-37.727478;145.112564;
382;656;SERGE VIDEL HAIR CARE    ;;643 GLENFERRIE RD        ;;3122;HAWTHORN        ;VIC;Australia;03 9818 6641    ;;-37.821617;145.035416;
383;656;SHIAGO;;13A RAILWAY PLACE;;3078;FAIRFIELD;VIC;Australia;03 9481 5700;;-37.779568;145.016724;
384;656;SO HAIRCUTTERS           ;;159 QUEENS PDE           ;;3068;CLIFTON HILL    ;VIC;Australia;03 9482 6322    ;;-37.788757;144.991394;
385;656;SUI SALON;;"SHOP 11 GROUND FLOOR
206 BOURKE STREET";;3000;MELBOURNE       ;VIC;Australia;;;-37.812946;144.967422;
386;656;TEMPO HAIR & BEAUTY      ;;SHOP 4, 92-96 BORONIA ROAD;;3155;BORONIA         ;VIC;Australia;03 9762 8499    ;;-37.862984;145.287613;
387;656;THE ANGLE HAIR DESIGN     ;;89 LOUGHNAN RD           ;;3134;RINGWOOD        ;VIC;Australia;03 9870 3724    ;;-37.808842;145.219223;
388;656;THE HAIR CLUB            ;;"SHOP K9 NORTHLAND S/CENTRE
MURRAY ROAD              ";;3072;PRESTON         ;VIC;Australia;03 9470 2488    ;;-37.740959;145.030884;
389;656;TUMI HAIR & BODY;;348 BRIDGE ROAD;;3121;RICHMOND        ;VIC;Australia;03 9428 8608;;-37.819096;145.002975;
390;656;VIVACE BY CHARLES;;"SHOP 14 LOWER GROUND
600 BOURKE STREET";;3000;MELBOURNE       ;VIC;Australia;03 9670 8168;;-37.765533;145.096329;
391;656;XIANG HAIR STUDIO COLLINGWOOD;XIANG HAIR STUDIO;342 SMITH ST             ;;3066;COLLINGWOOD     ;VIC;Australia;03 9417 5515    ;;-37.798798;144.984406;
392;656;XIANG HAIR STUDIO-GREENSBOROUGH;XIANG HAIR STUDIO;SHOP 26A, GREENSBOROUGH S/CENTRE          ;;3088;GREENSBOROUGH   ;VIC;Australia;03 9432 9433    ;;-37.70665;145.118668;
393;656;CONVICT CUTTERS;;87A ST JOHN STREET;;7250;LAUNCESTON      ;TAS;Australia;03 6334 4003;;-41.437023;147.138962;
394;656;GET SMART HAIRDRESSING   ;;SHOP 4 CHURCHERS ARCADE         ;;7310;DEVONPORT       ;TAS;Australia;03 6424 3833    ;;-41.175068;146.368439;
395;656;GLOW ON COLINS           ;;SHOP 9, 108-110 COLLINS STREET   ;;7000;HOBART          ;TAS;Australia;03 6224 0877    ;;-42.882805;147.328781;
396;656;HAIR ON RISELEY          ;;SHOP 3, 1 RISELEY ST             ;;7249;KINGS MEADOWS   ;TAS;Australia;03 6344 2174    ;;-41.465279;147.158417;
397;656;HEAD RUSH HAIRDRESSING;;20 MAGNET COURT;;7005;SANDY BAY       ;TAS;Australia;03 6223 6664    ;;-42.895016;147.327972;
398;656;SFUMATO HAIR;;160 COLLINS STREET;;7000;HOBART          ;TAS;Australia;03 6224 0094;;-42.883991;147.326675;
399;656;SOME HALLUCINATION       ;;83 SALAMANCA PLACE       ;;7000;HOBART          ;TAS;Australia;03 6224 1555    ;;-42.885422;147.328918;
604;0;ARROSE;;1/119A SURREY ROAD;;3130;BLACKBURN;VIC;;03 9999 2525;;-37.811287;145.157959;
605;0;INDULGENCE HAIR BODY SOUL;;SHOP G2, BROADMEADOWS TOWN CENTRE, ;PASCOE VALE RD;3047;BROADMEADOWS;VIC;AUSTRALIA;03 9309 3242;;-37.680191;144.919495;
401;636;STEFAN HAIR FASHION - AITKENVALE;STEFAN HAIR FASHION;"SHOP 8 STOCKLANDS
ROSS RIVER ROAD";;4814;AITKENVALE;QLD;Australia;07 4725 1613;;-19.298124;146.762772;
402;636;STEFAN HAIR FASHION - BRISBANE;STEFAN HAIR FASHION;"SHOP 81 MYER CENTRE
QUEENS STREET MALL";;4000;BRISBANE        ;QLD;Australia;07 3229 8711;;-27.470934;153.023499;
403;636;STEFAN HAIR FASHION (ACA) - SOUTH BRISBANE;STEFAN HAIR FASHION;170 MELBOURNE STREET     ;;4101;SOUTH BRISBANE  ;QLD;Australia;07 3840 0000    ;;-27.476665;153.014465;
404;637;AKA TOGNINI'S            ;;758 ANN STREET;;4006;FORTITUDE VALLEY;QLD;Australia;07 3852 2122;;-27.456676;153.036667;
405;637;BLOW;;SHOP 5A, 3 MONTPELLIER ROAD;;4006;NEWSTEAD;QLD;Australia;07 3257 2569;;-27.449329;153.041306;
406;637;BOUNCE HAIR & IMAGE;;7-9 GIBSON ROAD;;4566;NOOSAVILLE      ;QLD;Australia;07 5449 7800;;-26.401743;153.065613;
582;0;SUBLIME HAIRDRESSING SALONS;;3/15 JAMES STREET;;4005;NEW FARM;QLD;AUSTRALIA;;;-27.455845;153.038635;
408;637;ELENBI     ;;SHOP 228 SUNSHINE PLAZA           ;;4558;MAROOCHYDORE    ;QLD;Australia;07 5479 3488    ;;-26.655293;153.091263;
409;637;ETCHE HAIRDRESSING;;SHOP 3, 74 WARD STREET               ;;4017;SANDGATE        ;QLD;Australia;07 3269 2228    ;;-27.307941;153.063507;
410;637;FINCH BY SPARROW;;88E MERTHYR ROAD;;4005;FORTITUDE VALLEY;QLD;Australia;07 3254 2291;;-27.466833;153.046326;
411;637;FRINGE NOOSA CIVIC;;"SHOP T1042 NOOSA CIVIC
EENIE CREEK ROAD";;4566;NOOSAVILLE      ;QLD;Australia;07 5447 1030;;-26.421795;153.048935;
412;637;GEORGE ON SEBEL              ;;SHOP 108, 20 AERODROME ROAD        ;;4558;MAROOCHYDORE    ;QLD;Australia;07 5443 6743    ;;-26.661959;153.102997;
413;637;HEADLINES HAIR & BEAUTY;;SHOP 2 CNR BIDEFORD & FRESHWATER STREETS;;4655;TORQUAY - HERVEY BAY;QLD;Australia;07 4125 4220;;-25.285252;152.869904;
414;637;INK FOR HAIR             ;;375 NEWMARKET ROAD       ;;4051;NEWMARKET       ;QLD;Australia;07 3356 9996    ;;-27.435438;153.010727;
415;637;KATRINA'S HAIR DESIGN;;SHOP 24 DALBY SHOPPING WORLD;;4405;DALBY;QLD;Australia;07 4662 5336;;-27.183287;151.263748;
606;0;OSCAR OSCAR INDOOROOPILLY;;LEVEL 2, INDOOROOPILLY SHOPPING CENTRE;;4068;INDOOROOPILLY;QLD;Australia;07 3378 5763;;-32.0891;115.931335;
417;637;LUKE REYNOLDS HAIRDRESSING;;3/21 BAKER STREET;;4005;NEW FARM;QLD;Australia;07 3358 6816;;-27.455688;153.047058;
418;637;LYMMS HAIR SALON;;"LEVEL 2 JUPITERS HOTEL & CASINO
BROADBEACH ISLAND";;4218;BROADBEACH      ;QLD;Australia;07 5592 8799;;0;0;
419;637;PHILIP GAROUFALIS HAIR, SKIN & BODY;;5 DORNOCH TERRACE;;4101;WEST END;QLD;Australia;07 3846 1116;;-27.486933;153.006348;
420;637;ROUGE HAIR & BEAUTY;;SW1, 100 MELBOURNE STREET;;4101;WEST END;QLD;Australia;07 3846 TBA;;-27.480991;153.012161;
421;637;STEFAN HAIR FASHION - WEST END;STEFAN HAIR FASHION;"SHOP LG21 QUEENS PLAZA S/CENTRE
CNR ADELAIDE, EDWARD & QUEEN STREET";;4000;BRISBANE        ;QLD;Australia;07 3003 0060;;-27.46751;153.028;
422;637;STEFAN HAIR FASHION - NOOSAVILLE;STEFAN HAIR FASHION;"NOOSA CIVIC S/CENTRE
28 EENIE CREEK ROAD";;4556;NOOSAVILLE      ;QLD;Australia;07 5449 0120;;-26.697159;153.050079;
423;637;STEFAN HAIR FASHION - SPRINGFIELD LAKES;STEFAN HAIR FASHION;"SPRINGFIELD ORION 
1 MAIN STREET";;4300;SPRINGFIELD LAKES;QLD;Australia;07 3470 0344;;-27.676554;152.903229;
424;637;STEFAN HAIR FASHION -BRIBIE ISLAND;STEFAN HAIR FASHION;"SHOP 36, BRIBIE ISLAND S/CENTRE
CNR HORNSBY RD & FORTUNE AV";;4507;BRIBIE ISLAND   ;QLD;Australia;07 3408 2655;;-26.986099;153.132523;
425;637;STEFAN HAIR FASHION - ASPLEY ;STEFAN HAIR FASHION;"SHOP 58,  PICK N PAY HYPERMARKET
ALBANY CREEK ROAD        ";;4034;ASPLEY     ;QLD;Australia;07 3263 6600;;-27.362797;153.009354;
426;637;STEFAN HAIR FASHION - BROWNS PLAINS;STEFAN HAIR FASHION;"GRAND PLAZA S/CENTRE
CNR BROWNS PLAINS RD & MT LINDSEY HWY";;4115;BROWNS PLAINS;QLD;Australia;07 3800 7622;;-27.644184;153.032425;
427;637;STEFAN HAIR FASHION - CHERMSIDE;STEFAN HAIR FASHION;"CHERMSIDE SHOPPING CENTRE
GYMPIE ROAD              ";;4032;CHERMSIDE       ;QLD;Australia;07 3359 0411;;-27.38365;153.030121;
428;637;STEFAN HAIR FASHION -TOOWOOMBA;STEFAN HAIR FASHION;"SHOP 93 GRAND CENTRAL S/CENTRE
MARGARET STREET          ";;4350;TOOWOOMBA       ;QLD;Australia;07 4638 9066    ;;-27.561533;151.957687;
429;637;STEFAN HAIR FASHION -INDOOROOPILLY;STEFAN HAIR FASHION;"LEVEL 2 INDOOROOPILLY S/TOWN
MOGGILL ROAD             ";;4068;INDOOROOPILLY   ;QLD;Australia;07 3378 8022;;-27.529894;152.91687;
430;637;STEFAN HAIR FASHION -NORTH IPSWICH;STEFAN HAIR FASHION;"SHOP 52, IPSWICH RIVERLINKS
CNR DOWNS RD & THE TERRACE";;4305;NORTH IPSWICH;QLD;Australia;07 3812 2522    ;;-27.608835;152.762497;
431;637;STEFAN HAIR FASHION -KAWANA WATERS;STEFAN HAIR FASHION;"SHOP 18  KAWANA S/CENTRE 
NICKLING WAY              ";;4575;KAWANA WATERS   ;QLD;Australia;07 5444 2411    ;;-26.732416;153.129578;
432;637;STEFAN HAIR FASHION - MAROOCHYDORE;STEFAN HAIR FASHION;SHOP 317 SUNSHINE PLAZA            ;;4558;MAROOCHYDORE    ;QLD;Australia;07 5443 4275;;-26.655293;153.091263;
433;637;STEFAN HAIR FASHION - MORAYFIELD;STEFAN HAIR FASHION;"SHOP 11, MORAYFIELD S/CENTRE 
MORAYFIELD ROAD          ";;4506;MORAYFIELD      ;QLD;Australia;07 5499 4666    ;;-27.103182;152.948151;
434;637;STEFAN HAIR FASHION - MT OMMANEY ;STEFAN HAIR FASHION;"MT OMMANEY S/CENTRE
171 DANDENONG ROAD";;4074;MT OMMANEY      ;QLD;Australia;07 3376 2522;;-27.549236;152.939056;
435;637;STEFAN HAIR FASHION - MANGO HILL;STEFAN HAIR FASHION;"SHOP 1027 NORTH LAKES S/CENTRE
1027 NORTH LAKES DRIVE";;4509;MANGO HILL      ;QLD;Australia;07 3385 0677;;-27.242668;153.020844;
436;637;STEFAN HAIR FASHION - KIPPA RING;STEFAN HAIR FASHION;"PENINSULA FAIR S/CENTRE  
ANZAC AVENUE             ";;4021;KIPPA RING      ;QLD;Australia;07 3284 1122;;-27.223238;153.082626;
437;637;STEFAN HAIR FASHION - STAFFORD;STEFAN HAIR FASHION;"STAFFORD CITY SHOPPING CENTRE
400 STAFFORD ROAD            ";;4053;STAFFORD        ;QLD;Australia;07 3352 6300;;-27.410606;153.012161;
438;637;STEFAN HAIR FASHION STRATHPINE;STEFAN HAIR FASHION;"WESTFIELD SHOPPING CENTRE  
GYMPIE ROAD              ";;4500;STRATHPINE      ;QLD;Australia;07 3205 6255;;-27.307158;152.990784;
439;637;STEFAN HAIR FASHION -TOOMBUL;STEFAN HAIR FASHION;"TOOMBUL SHOPPING CENTRE 
SANDGATE ROAD            ";;4012;TOOMBUL         ;QLD;Australia;07 3266 8288;;-27.399553;153.059006;
440;637;STEFAN HAIR FASHION - TOOWONG;STEFAN HAIR FASHION;"SHOP 4 TOOWONG VILLAGE 
SHERWOOD ROAD            ";;4066;TOOWONG         ;QLD;Australia;07 3371 5577    ;;-27.485327;152.988724;
441;637;SUBLIME HAIRDRESSING -CARINDALE;SUBLIME HAIRDRESSING;"SHOP 2064A WESTFIELD SHOPPING CENTRE
1151 CREEK ROAD               ";;4152;CARINDALE       ;QLD;Australia;07 3843 6455;;-27.503326;153.101517;
442;637;SUBLIME HAIRDRESSING - CHERMSIDE;SUBLIME HAIRDRESSING;"SHOP 150 WESTFIELD CHERMSIDE
GYMPIE ROAD              ";;4032;CHERMSIDE       ;QLD;Australia;07 3861 4600;;-27.34164;153.011063;
443;637;SUBLIME HAIRDRESSING -INOOROOPILLY;SUBLIME HAIRDRESSING;"SHOP 3007 INDOOROOPILLY S/CENTRE
MOGGILL ROAD             ";;4068;INDOOROOPILLY   ;QLD;Australia;07 3878 7566;;-27.529894;152.91687;
444;637;SUITE THREE;;3 BALLINGER PLACE;;4556;BUDERIM;QLD;Australia;07 5445 6700;;-26.685852;153.05098;
445;637;TALK 'N' HEADS           ;;89 GRAFTON STREET       ;;4370;WARWICK         ;QLD;Australia;07 4661 5565    ;;-28.216085;152.03302;
446;637;TOGNINI'S HAIR WORKSHOP  ;;"SHOP 2 THE MERCARDO
 8 WANDOO STREET";;4006;FORTITUDE VALLEY;QLD;Australia;07 3852 6801;;-27.454851;153.039276;
447;560;ADAM & EVA               ;;"SHOP 2 BOLAND CENTRE   
LAKE STREET              ";;4870;CAIRNS          ;QLD;Australia;07 4041 0441    ;;-16.915421;145.770172;
448;560;AIRLIE DAY SPA;;SHOP 1, 303 SHUTE HARBOUR ROAD;;4802;AIRLIE BEACH;QLD;Australia;07 4946 6543;;-20.269642;148.721115;
449;560;CAPELLI HAIR GALLERY;;"SHOP 16 NORTH WARD SHOPPING VILLAGE
EYRE STREET";;4810;NORTH WARD;QLD;Australia;07 4724 5554;;-19.248453;146.810013;
450;560;MACKAY DAY SPA;;1/203 VICTORIA STREET;;4740;MACKAY          ;QLD;Australia;07 49533 777;;-21.140444;149.178589;
451;560;VANITY DAY SPA           ;;"BATROS PLACE
68-78 WOOD STREET";;4740;MACKAY          ;QLD;Australia;07 4957 5464    ;;-21.142567;149.185623;
452;639;CHAMPIONS HAIR & BEAUTY DAY SPA  ;;SHOP 1A MASTHEAD WAY     ;;4212;SANCTUARY COVE  ;QLD;Australia;07 5577 8677    ;;-27.853443;153.361572;
453;639;CHEMISTRY FOR HAIR;;358 BRUNSWICK STREET;;4006;FORTITUTE VALLEY;QLD;Australia;07 3252 1250;;-27.458555;153.035675;
454;639;COCO MOUSSE;;SHOP 8 THE PIAZZA, 228 VARSITY PARADE;;4227;VARSITY LAKES;QLD;Australia;07 5575 8218;;-28.077641;153.41452;
455;639;COLOURADO HAIR - BROADBEACH;;"SHOP 164 PACIFIC FAIR SHOPPING CENTRE
HOOKER BOULEVADE         ";;4218;BROADBEACH      ;QLD;Australia;07 5575 5545;;-28.034952;153.426788;
456;639;COLOURADO HAIR GOLD - ROBINA;;"SHOP A426 ARBOUR LANE
ROBINA TOWN CENTRE DRIVE ";;4226;ROBINA          ;QLD;Australia;07 5593 2863;;-28.073288;153.377991;
457;639;DHS HAIR STUDIO;;974 WATERWORKS RD        ;;4061;THE GAP         ;QLD;Australia;07 3300 4200    ;;-27.446016;152.953125;
583;0;TONIQUE HAIR & IMAGE;;1/62 HIGH STREET;;4066;TOOWONG;QLD;AUSTRALIA;;;-27.48716;152.991043;
584;0;SHAMPERS AT THREE;;144 DURLACHER STREET;;6530;GERALDTON;WA;AUSTRALIA;08 9965 3433;;-28.778934;114.61689;
459;639;FOX SALON &  BROWS            ;;SHOP 48A, LEVEL 1 OASIS CENTRE             ;;4218;BROADBEACH      ;QLD;Australia;07 5538 2877    ;;-28.0291;153.431381;
460;639;GEORGIOU MICHELE CONCEPT SALON;;103 WHITES ROAD;;4179;MANLY;QLD;Australia;07 3396 5327;;-27.462984;153.180115;
609;0;FRANCK PROVOST DOUBLE BAY;;2/409 NEW SOUTH HEAD ROAD;;2028;DOUBLE BAY     ;NSW;Australia;02 9328 6266;;-27.385836;153.030975;
462;639;MIEKA HAIRDRESSING;;17 LAVARACK ROAD;;4218;NOBBY BEACH;QLD;Australia;07 5554 5088;;-28.059187;153.43895;
463;639;MODSHAIR GOLD COAST;;"SHOP T31 & T32 CIRCLE ON CAVILL
30 FERNEY AVENUE";;4217;SURFERS PARADISE;QLD;Australia;07 5526 7500;;-28.001171;153.428314;
464;639;MOTY GRAU HAIR GALLERY;;SHOP 2, 38 THOMAS DRIVE;;4217;CHEVRON ISLAND;QLD;Australia;07 5538 6633;;-27.997345;153.419846;
465;639;NEXT INTERNATIONAL - HELENSVILLE   ;NEXT INTERNATIONAL;SHOP 4, 9 SIR JOHN OVERALL DRIVE   ;;4212;HELENSVALE      ;QLD;Australia;07 5529 9033    ;;-27.922293;153.335632;
466;639;NEXT INTERNATIONAL - OXENFORD      ;NEXT INTERNATIONAL;SHOP 5, 1 COTTONWOOD PLACE       ;;4210;OXENFORD        ;QLD;Australia;07 5519 4799    ;;-27.891277;153.311554;
467;639;NEXT INTERNATIONAL  - UPPER COOMERA     ;NEXT INTERNATIONAL;"COOMERA CITY CENTRE
CORNER DAYS ROAD & OLD COACH ROAD";;4209;UPPER COOMERA;QLD;Australia;07 5529 9033;;-27.855;153.298157;
468;639;OJ'S HAIRDRESSING       ;;SHOP 2, 37 COMMERCE DRIVE;;4226;ROBINA          ;QLD;Australia;07 5593 2300    ;;-28.064457;153.40361;
469;639;OSK 1                    ;;SHOP 2, 84 SCARBOROUGH STREET        ;;4215;SOUTHPORT       ;QLD;Australia;07 5526 4322    ;;-27.968252;153.414062;
470;639;QI HAIR STYLING;;" SHOP 12 Q1 BUILDING
9 HAMILTON AVENUE";;4217;SURFERS PARADISE;QLD;Australia;07 5538 7111;;-28.006439;153.430099;
471;639;RIXON HAIR               ;RIXON HAIRDRESSING;L1,  262 ADELAIDE ST     ;;4000;BRISBANE        ;QLD;Australia;07 3229 6755    ;;-27.46587;153.028;
472;639;SOHO ON TEDDER;;SHOP 2, 15 TEDDER AVENUE;;4217;MAIN BEACH;QLD;Australia;07 5532 4217;;-27.980085;153.425018;
473;639;SPIRIT HAIR & BEAUTY     ;;"SHOP 21 RUNAWAY BAY VILLAGE S/CENTRE  
14-26 LAE DRIVE";;4216;RUNAWAY BAY     ;QLD;Australia;07 5537 7027    ;;-27.912601;153.397446;
474;639;STEFAN HAIR FASHION  - VICTORIA POINT;STEFAN HAIR FASHION;"SHOP 64 VICTORIA POINT S/CENTRE
CNR CLEVELAND-REDLAND BAY RD & BUNKER RD";;4165;VICTORIA POINT  ;QLD;Australia;07 3820 8261;;-27.595528;153.271881;
475;639;STEFAN HAIR FASHION - CAIRNS;STEFAN HAIR FASHION;"SHOP 30 CAIRNS CENTRAL 
MCLEOD STREET            ";;4870;CAIRNS          ;QLD;Australia;07 4031 8513    ;;-16.924751;145.772446;
476;639;STEFAN HAIR FASHION - EARLVILLE;STEFAN HAIR FASHION;"EARLVILLE SHOPPING TOWN
MULGRAVE ROAD            ";;4870;EARLVILLE       ;QLD;Australia;07 4054 3666    ;;-16.943548;145.738708;
477;639;STEFAN HAIR FASHION - CALAMVALE;STEFAN HAIR FASHION;"SHOP 23 CALAMVALE VILLAGE S/CENTRE
662 COMPTOAN ROAD";;4116;CALAMVALE;QLD;Australia;07 3711 3466;;-27.623346;153.04744;
478;639;STEFAN HAIR FASHION - CANNON HILL;STEFAN HAIR FASHION;"KMART PLAZA    
WYNNUM ROAD              ";;4170;CANNON HILL     ;QLD;Australia;07 3399 4911;;-27.469786;153.097641;
479;639;STEFAN HAIR FASHION - CAPALABA;STEFAN HAIR FASHION;"CAPALABA PARK SHOP CENTRE   
MT COTTON ROAD           ";;4157;CAPALABA        ;QLD;Australia;07 3245 5166;;-27.522348;153.19133;
480;639;STEFAN HAIR FASHION - CARINDALE;STEFAN HAIR FASHION;"CARINDALE SHOPPING CENTRE 
CREEK ROAD               ";;4152;CARINDALE       ;QLD;Australia;07 3395 1633;;-27.501345;153.100418;
481;639;STEFAN HAIR FASHION - MT GRAVATT;STEFAN HAIR FASHION;"SHOP 57 GARDEN CITY S/CENTRE 
KESSELS ROAD             ";;4122;MT GRAVATT      ;QLD;Australia;07 3343 1488    ;;-27.53722;153.078308;
482;639;STEFAN HAIR FASHION - GLADSTONE;STEFAN HAIR FASHION;"KIN KORA MALL  (B215)   
DAWSON HWY & PHILLIP ST    ";;4680;GLADSTONE       ;QLD;Australia;07 4978 2855;;-23.849001;151.263;
483;639;STEFAN HAIR FASHION HELENSVILLE;STEFAN HAIR FASHION;"SHOP 1090 WESTFIELD S/CENTRE  
1 MILLAROO DRIVE         ";;4212;HELENSVALE      ;QLD;Australia;07 5519 4600    ;;-27.926828;153.335709;
484;639;STEFAN HAIR FASHION - LOGANHILME;STEFAN HAIR FASHION;"SHOP 93 LOGAN HYPERDOME  
PACIFIC HIGHWAY          ";;4129;LOGANHOLME       ;QLD;Australia;07 3801 2694    ;;-27.659107;153.168655;
485;639;STEFAN HAIR FASHION - MACKAY;STEFAN HAIR FASHION;"SHOP 68 CANELANDS SHOPPING TOWN
MANGROVE ROAD            ";;4740;MACKAY          ;QLD;Australia;07 4951 2233    ;;-21.139906;149.178802;
486;639;STEFAN HAIR FASHION - MOUNT PLEASANT;STEFAN HAIR FASHION;"MT PLEASANT SHOPPING CENTRE
PHILLIP STREET          ";;4740;MT PLEASANT     ;QLD;Australia;07 4942 1855;;-21.117636;149.158752;
487;639;STEFAN HAIR FASHION - BROABEACH;STEFAN HAIR FASHION;"SHOP 76-78 PACIFIC FAIR S/CENTRE
HOOKER BOULEVADE         ";;4218;BROADBEACH      ;QLD;Australia;07 5570 3044;;-28.035095;153.426086;
488;639;STEFAN HAIR FASHION - ROBINA;STEFAN HAIR FASHION;ROBINA TOWN CENTRE ROAD  ;;4226;ROBINA          ;QLD;Australia;07 5578 9264    ;;-28.073288;153.377991;
489;639;STEFAN HAIR FASHION - ROCKHAMTON PLAZA;STEFAN HAIR FASHION;"CITY CENTRE PLAZA   
CNR BOLSOVER & FITZROY STREETS ";;4700;ROCKHAMPTON     ;QLD;Australia;07 4922 1271    ;;-23.377134;150.511047;
490;639;STEFAN HAIR FASHION -ROCKHAMTON-YAAMBA RD;STEFAN HAIR FASHION;"SHOP 9 ROCKHAMPTON S/FAIR
YAAMBA ROAD              ";;4700;ROCKHAMPTON     ;QLD;Australia;07 4928 0144    ;;-23.354164;150.522293;
491;639;STEFAN HAIR FASHION - RUNAWAY BAY;STEFAN HAIR FASHION;"RUNAWAY BAY S/CENTRE  
CNR LAE & MORALLA DRIVE    ";;4216;RUNAWAY BAY ;QLD;Australia;07 5528 9155    ;;-27.911922;153.398651;
492;639;STEFAN HAIR FASHION - AITKENVALE;STEFAN HAIR FASHION;STOCKLANDS, ROSS RIVER ROAD;;4814;AITKENVALE;QLD;Australia;07 4773 6175    ;;-19.298124;146.762772;
493;639;STYLISTIC;;SHOP 1/40 NERANG STREET (MALL);;4215;SOUTHPORT       ;QLD;Australia;07 5527 0322;;-27.967306;153.41452;
494;639;TEASE ME HAIR CULTURE ;;SHOP 2 MAIN PLACE, QUEENSLAND AVENUE;;4218;BROADBEACH      ;QLD;Australia;07 5570 4104;;-28.027241;153.432129;
495;639;URBANE HAIR DESIGN       ;;SHOP 6, 1981 LOGAN ROAD          ;;4122;UPPER MT GRAVATT;QLD;Australia;07 3349 8884    ;;-27.559259;153.080261;
496;641;HAIR OBSESSION           ;;SHOP 7, WOOLWORTHS SHOPPING COMPLEX  DICKWARD DRIVE;;810;NIGHTCLIFF      ;NT;Australia;08 8985 4000    ;;0;0;
497;641;HEADLINES FOR HAIR & BEAUTY;;GROUND FLOOR, 9 PARSON STREET          ;;870;ALICE SPRINGS   ;NT;Australia;08 8952 3484     ;;-23.69832;133.881668;
498;641;INSTYLE HAIR & BEAUTY;;SHOP 4, 130 UNIVERSITY AVENUE;;830;PALMERSTON      ;NT;Australia;08 8932 2602;;-12.480165;130.970367;
499;641;K-LUSH HAIR DESIGN;;SHOP 2 NORTHLAKES S/CENTRE           ;;810;NORTHLAKES      ;NT;Australia;08 8927 6102    ;;0;0;
500;641;MOMBASA DAY SPA & HAIR LOUNGE;;30 NORTH STUART HIGHWAY;;870;ALICE SPRINGS   ;NT;Australia;08 8953 6996;;-23.690336;133.875534;
501;641;PALACE HAIR STUDIOS      ;;SHOP 3 MITCHELL CENTRE, MITCHELL STREET          ;;800;DARWIN          ;NT;Australia;08 8981 8877;;-12.457525;130.833649;
502;641;SCALPT HAIR;SCALPT HAIR;SHOP 1, 29 CAVENAGH STREET;;800;DARWIN          ;NT;Australia;08 8941 9288;;-12.462401;130.842667;
503;641;SCALPT HAIR ON THE WATERFRONT;SCALPT HAIR;"E2, DARWIN CITY WATERFRONT
KITCHENER DRIVE";;800;DARWIN          ;NT;Australia;08 8981 1117;;-12.467209;130.846725;
504;641;THE CUT ABOVE (CASUARINA)      ;;"SHOP 78 CASUARINA SQUARE
CASUARINA SHOPPING CENTRE   ";;810;CASUARINA       ;NT;Australia;08 8927 4090    ;;0;0;
505;641;VANILLA HAIR STUDIO           ;;"SHOP 11 VIC ARCADE, THE MALL
SMITH STREET";;800;DARWIN          ;NT;Australia;08 8981 6886    ;;0;0;
506;632;BLAQ HAIR & BEAUTY;;"SHOP 3 FORTE SHOPPING CENTRE
CNR FRANCIS FORTE BOULEVARD & ZAKORAV STREET";;2914;FORTE;ACT;Australia;;;-35.161503;149.138626;
507;632;CATALDO'S SALON          ;;55-57 NORTHBOURNE AVENUE ;;2601;CANBERRA CITY   ;ACT;Australia;02 6249 6666    ;;-35.278728;149.128677;
508;632;CATALDO'S SALON  SKY PLAZA        ;;SKY PLAZA, 98 CORRINA STREET;;2606;WODEN;ACT;Australia;02 6162 0366;;-35.349079;149.089828;
509;632;FORM HAIRCUTTERS;;25 KENNEDY STREET;;2604;KINGSTON;ACT;Australia;02 6295 6355;;-35.316261;149.140961;
510;632;FRANCO SALON             ;;S29 BAILEYS CORNER, LONDON CIRCUIT           ;;2601;CANBERRA CITY   ;ACT;Australia;02 6247 9560    ;;-35.283546;149.130966;
511;632;FRANCO OF CANBERRA             ;;"BUILDING 8, UNIT 12 BRINDABELLA CIRCUIT
BRINDABELLA BUSINESS PARK";;2609;CANBERRA AIRPORT;ACT;Australia;02 6162 1226;;-35.314117;149.189835;
512;632;HAIR AFFAIR BOUTIQUE     ;;1B SOUTHLANDS S/CENTRE        ;;2607;MAWSON          ;ACT;Australia;02 6286 9811    ;;-35.370266;149.094803;
513;632;MEST;;1 PALMERSTON LANE;;2603;MANUKA;ACT;Australia;02 6295 9010;;-35.323982;149.132874;
514;632;RUSTICS HAIRCUTTERS      ;;SHOP 3A, 29 BENTHAM STREET          ;;2600;YARRALUMLA      ;ACT;Australia;02 6285 3678    ;;-35.307491;149.097336;
515;632;THE HAIRDRESSING;;SHOP 3 MEDINA JAMES COURT, 74 NORTHBOURNE AVE;;2601;CANBERRA CITY;ACT;Australia;02 6257 8484;;-35.275551;149.130142;
516;640;AGAVE                    ;;104 EIGHTH STREET;;3500;MILDURA         ;SA;Australia;03 5022 8999    ;;-34.187263;142.165588;
517;640;ANTENNA HAIRCUTTERS;;SHOP 7, 10 COROMANDEL PARADE;;5051;BLACKWOOD;SA;Australia;08 8278 5262;;-35.021637;138.617065;
518;640;ANTONS HAIR & BEAUTY      ;;50 GAWLER PL             ;;5000;ADELAIDE        ;SA;Australia;08 8223 5881    ;;-34.923237;138.601929;
519;640;CASQUADE BODY ESSENTIALS ;;166 EIGHTH STREET            ;;3500;MILDURA         ;SA;Australia;03 5023 3768    ;;-34.181786;142.158997;
520;640;CLIP JOINT-GLENSIDE      ;CLIP JOINT;BURNSIDE VLGE PORTRUSH RD;;5065;GLENSIDE        ;SA;Australia;08 8379 9421    ;;-34.930065;138.641754;
521;640;CLIP JOINT-NTH ADELAIDE  ;CLIP JOINT;79 MELBOURNE STREET      ;;5006;NORTH ADELAIDE  ;SA;Australia;08 8267 4044    ;;-34.906445;138.608536;
522;640;CROSS CUT RUNDLE MALL    ;;99A RUNDLE MALL          ;;5000;ADELAIDE        ;SA;Australia;08 8232 5633    ;;-34.923019;138.603271;
523;640;C-SALON HUTT STREET;C-SALON;152 HUTT STREET;;5000;ADELAIDE;SA;Australia;08 8223 3380;;-34.930542;138.612579;
524;640;C-SALON TEA TREE PLAZA   ;C-SALON;"SHOP 76 WESTFIELD S/TOWN
TEA TREE PLAZA           ";;5092;MODBURY         ;SA;Australia;08 8265 2244  ;;-34.830986;138.690414;
525;640;C-SALON WESTLAKES;C-SALON;"SHOP 223 WESTFIELD S/CENTRE
WESTLAKES BOULEVARD";;5023;WESTLAKES;SA;Australia;08 8353 1177;;-34.895496;138.513718;
526;640;DEAKIN DESIGNERS HAIRSTUDIO;;73 DEAKIN AVENUE         ;;3500;MILDURA         ;SA;Australia;03 5023 1752    ;;-34.185661;142.160782;
527;640;ENVE -GLENELG                 ;ENVE;67 JETTY RD              ;;5045;GLENELG         ;SA;Australia;08 8376 3993    ;;-34.980156;138.51561;
528;640;ENVE - HYDE PARK                    ;ENVE;SHOP 1, 2 & 3, 96 KING WILLIAM ROAD;;5045;HYDE PARK       ;SA;Australia;08 8373 7221;;-34.951893;138.599762;
529;640;TOMMY HAIR & BEAUTY;;SHOP 150 WESTFIELD S/CENTRE;;5009;KILKENNY        ;SA;Australia;08 8268 9998    ;;-34.873146;138.548462;
530;640;EXCEL HAIR AND BEAUTY    ;;SHOP 36,976 NORTH EAST RD        ;;5092;MODBURY         ;SA;Australia;08 8265 5400    ;;-34.831486;138.691742;
531;640;GLAMOROUS HAIR;;134 TAPLEYS HILL ROAD;;5014;ROYAL PARK;SA;Australia;08 8268 3986;;-34.875538;138.512207;
532;640;GOLDILOCKS HAIRDRESSERS  ;;184 TYNTE STREET             ;;5006;NORTH ADELAIDE  ;SA;Australia;08 8267 3993    ;;-34.906265;138.593445;
533;640;HAIR MACHINE - GLENELG;HAIR MACHINE;136 JETTY ROAD;;5045;GLENELG         ;SA;Australia;08 8376 7733;;-34.980362;138.517975;
534;640;HAIR MACHINE BURNSIDE;HAIR MACHINE;386 GREENHILL ROAD;;5065;BURNSIDE;SA;Australia;08 8338 2244;;-34.939362;138.642075;
535;640;HAIR MACHINE NORWOOD     ;HAIR MACHINE;118 THE PARADE           ;;5067;NORWOOD         ;SA;Australia;08 8331 1666    ;;-34.921371;138.632462;
536;640;HAIR MACHINE NTH ADELAIDE;HAIR MACHINE;59 O'CONNELL STREET          ;;5006;NORTH ADELAIDE  ;SA;Australia;08 8239 0099    ;;-34.907726;138.596512;
537;640;HAIR MACHINE ADELAIDE;HAIR MACHINE;SHOP 37 REGENT ARCADE          ;;5000;ADELAIDE        ;SA;Australia;08 8232 5522    ;;-34.92416;138.603256;
538;640;HAIR MACHINE UNLEY;HAIR MACHINE;SHOP 3, 188 UNLEY ROAD;;5061;UNLEY           ;SA;Australia;08 8271 2770;;-34.950066;138.60704;
539;640;HAIR MACHINE WEST LAKES  ;HAIR MACHINE;"FREDERICK SHOPPING CENTRE
SHOP 1-2, 178 FREDERICK ROAD";;5022;WEST LAKES      ;SA;Australia;08 8353 1177    ;;-34.908825;138.496216;
540;640;HAIRCLUB INC SALON       ;;"SHOP T64 CENTRO PLAZA    
CNR 12TH & 15TH DEAKIN AVENUE   ";;3500;MILDURA         ;SA;Australia;03 5021 3700    ;;0;0;
541;640;KAZ HAIR N BEAUTY        ;;"WESTFIELD SHOPPING CENTRE
297 DIAGONAL ROAD        ";;5046;MARION          ;SA;Australia;08 8296 4444    ;;-35.015839;138.543671;
542;640;KENDALLS OF WALKERVILLE  ;;26 SMITH STREET          ;;5081;WALKERVILLE     ;SA;Australia;08 8269 6385    ;;-34.894527;138.616318;
543;640;L'INDULGENCE AT GRANGE;;675 GRANGE ROAD;;5022;HENLEY BEACH;SA;Australia;08 8235 0900;;-34.907139;138.492599;
544;640;MARROS HAIR & BEAUTY     ;;SHOP 13, 171 GLYNBURN ROAD       ;;5070;FIRLE           ;SA;Australia;08 8364 2190    ;;-34.904442;138.655014;
545;640;MICHAEL AGAR HAIR        ;;"THE METRO CENTRE 
SHOP 3, 260 UNLEY ROAD   ";;5061;HYDE PARK       ;SA;Australia;08 8272 2720    ;;-34.954369;138.606857;
547;640;MONA-LISA COIFFURE       ;;SHOP 12, 303 GRANGE RD            ;;5023;FINDON          ;SA;Australia;08 8356 7794    ;;-34.904575;138.531174;
548;640;RAZZ HAIR STUDIO;;SHOP 1, 58 GEORGE STREET;;5067;NORWOOD         ;SA;Australia;08 8331 9160;;-34.921757;138.6371;
549;640;SASS & BEAU HAIRDRESSERS ;;37 WILLIAM STREET;;5067;NORWOOD         ;SA;Australia;08 8331 3663    ;;-34.924473;138.627747;
550;640;STEVEN PROFESSIONAL - MITCHAM;STEVEN PROFESSIONAL;SHOP 50, 119 BELAIR ROAD          ;;5062;MITCHAM         ;SA;Australia;08 8357 7577    ;;-34.975826;138.609726;
551;640;STEVEN PROFESSIONAL - DULWICH ;STEVEN PROFESSIONAL;137A DULWICH AVENUE;;5065;DULWICH;SA;Australia;08 8431 6400;;-34.934994;138.631424;
552;640;STEVENS PROFESSIONAL - GLENELG   ;STEVEN PROFESSIONAL;"BAYSIDE  VILLAGE S/CENTRE
125 JETTY ROAD";;5045;GLENELG         ;SA;Australia;08 8295 4990;;-34.980186;138.517349;
553;640;SUAVE HAIR;;SHOP 3, 58 LAMBERT ROAD;;5070;ROYSTON PARK;SA;Australia;08 8363 1666;;-34.898102;138.627563;
554;640;SURREAL HAIRDRESSING;;267 KENSINGTON ROAD;;5068;KENSINGTON PARK;SA;Australia;08 8332 5444;;-34.926296;138.651215;
555;640;TEEZE HAIR & BEAUTY      ;;SHOP 3, 159 HENLEY BEACH ROAD;;5031;TORRENSVILLE    ;SA;Australia;08 8443 4549    ;;-34.924568;138.56221;
556;640;VISIONS                  ;;36 LANGTREE AVE          ;;3500;MILDURA         ;SA;Australia;03 5023 6677    ;;-34.18388;142.162476;
557;640;VIVA HAIR                ;;16 O'CONNELL STREET      ;;5006;NORTH ADELAIDE  ;SA;Australia;08 8267 1806    ;;-34.90884;138.597;
568;0;MIENNA'S;;35 RYRIE STREET;;3220;GEELONG;VIC;Australia;03 5298 1451;;-38.147678;144.354401;
559;640;YELLOW STRAWBERRY -NORTH ADELAIDE;YELLOW STRAWBERRY;"SHOP 19 NTH ADELAIDE S/CENTRE 
O'CONNELL STREET";;5006;NORTH ADELAIDE  ;SA;Australia;08 8267 5646    ;;-34.905643;138.595703;
560;640;YELLOW STRAWBERRY-WEST LAKES;YELLOW STRAWBERRY;SHOP 1 WEST LAKE MALL      ;;5021;WEST LAKES      ;SA;Australia;08 8353 5646    ;;-34.878601;138.498627;
561;640;ZINK - THE ELEMENT OF HAIR. PLYMPTON;ZINK;377 MARION ROAD;;5038;PLYMPTON        ;SA;Australia;08 8297 7958;;-34.961273;138.554764;
562;640;ZINK - THE ELEMENT OF HAIR. UNLEY;ZINK;"SHOP 39 UNLEY S/CENTRE
204 UNLEY ROAD";;5061;UNLEY           ;SA;Australia;08 8272 8711;;-34.950779;138.607483;
563;640;ZINK - THE ELEMENT OF HAIR. EDWARDSTON;ZINK;"SHOP 55 CASTLE PLAZA
992 SOUTH ROAD           ";;5039;EDWARDSTOWN     ;SA;Australia;08 8277 6199;;-34.981495;138.57283;
564;640;ZINK - THE ELEMENT OF HAIR. FIRLE;ZINK;SHOP 14, 151-161 GLYBURN ROAD;;5070;FIRLE           ;SA;Australia;08 8333 0067;;-34.902763;138.657104;
565;640;ZINK - THE ELEMENT OF HAIR. MARION;ZINK;"SHOP 2020 WESTFIELD S/CENTRE
297 DIAGONAL ROAD";;5046;MARION          ;SA;Australia;08 8358 3655;;-35.008591;138.543732;
585;0;ELENBI AT MOOLOOLABA;;SHOP 10B ZANZIBAR APARTMENTS,;THE ESPLANADE;4557;MOOLOOLABA;QLD;AUSTRALIA;07 5444 4965;;-26.681431;153.12114;
590;0;OSCAR OSCAR CARINDALE;OSCAR OSCAR;LEVEL 1, WESTFIELD CARINDALE;;4152;CARINDALE;QLD;;07 3843 6277;;-27.500034;153.102524;
589;0;OSCAR OSCAR BROADBEACH;OSCAR OSCAR;LEVEL 1 ARCADE, PACIFIC FAIR;;4218;BROADBEACH;QLD;AUSTRALIA;07 5570 6955;;-28.037708;153.430298;
588;0;OSCAR OSCAR BRISBANE CITY;OSCAR OSCAR;CNR ADELAIDE AND ALBERT ST;;4000;BRISBANE;QLD;AUSTRALIA;07 3229 0534;;-27.468855;153.024506;
591;0;OSCAR OSCAR CHADSTONE;OSCAR OSCAR;SHOP B192, CHADSTONE SHOPPING CENTER;;3148;CHADSTONE;VIC;AUSTRALIA;03 9568 0844;;-37.885784;145.08223;
592;0;OSCAR OSCAR CHERMSIDE;OSCAR OSCAR;SHOP 322, WESTFIELD;;4032;CHERMSIDE;QLD;AUSTRALIA;07 3359 7799;;-27.381836;153.033829;
593;0;OSCAR OSCAR DONCASTER;OSCAR OSCAR;LEVEL 1, WESTFIELD DONCASTER;;3108;DONCASTER;VIC;;03 9855 9848;;-37.784901;145.126266;
594;0;OSCAR OSCAR FORTITUDE VALLEY;OSCAR OSCAR;354 BRUNSWICK ST;;4006;FORTITUDE VALLEY;QLD;;07 3010 4166;;-37.797146;144.978683;
595;0;OSCAR OSCAR INDOOROOPILLY;OSCAR OSCAR;LEVEL 2, INDOOROOPILLY SHOPPING CENTRE;;4068;NDOOROOPILLY;QLD;AUSTRALIA;07 3378 5763;;-27.498323;152.972748;
596;0;OSCAR OSCAR PADDINGTON;OSCAR OSCAR;320 OXFORD STREET;;2021;PADDINGTON;NSW;AUSTRALIA;02 9360 7739;;-33.885567;151.228302;
597;0;OSCAR OSCAR PALAZZO VERSACE;OSCAR OSCAR;94 SEA WORLD DRIVE;;4217;MAIN BEACH;QLD;AUSTRALIA;07 55 918 976;;-27.967157;153.426361;
598;0;OSCAR OSCAR SOUTHLAND;OSCAR OSCAR;SHOP 2131, WESTFIELD SOUTHLAND;;3192;CHELTENHAM;VIC;AUSTRALIA;03 9908 1680;;-37.959427;145.05394;
599;0;OSCAR OSCAR TOOWOOMBA;OSCAR OSCAR;SHOP 15, LEVEL 1, ;GRAND CENTRAL SHOPPING CENTRE;4350;TOOWOOMBA;QLD;AUSTRALIA;07 4638 7177;;-27.560913;151.94902;
600;0;STUDIO 144;;144 BURGUNDI STREET;;3084;HEIDELBERG;VIC;AUSTRALIA;03 9459 8557;;-37.756039;145.065399;
601;0;SHIZU HAIR & BEAUTY;;3/45 MAIN STREET;;3931;MORNINGTON;VIC;AUSTRALIA;03 5976 3833;;-38.217831;145.03743;
602;0;QUEENS HAIRDRESSING;;127 TOORAK ROAD;;3141;SOUTH YARRA;VIC;AUSTRALIA;03 9866 2893;;-37.83884;144.990448;
612;0;THE SALON ON THE BOULEVARD;;3/316 THE BOULEVARD;;6015;CITY BEACH;WA;Australia;08 9285 0205;;-31.966043;115.774719;
621;0;FRUITION HAIR;;SHOP 1, 2 HEATHER STREET;;4051;WILSTON;QLD;AUSTRALIA;07 3356 3311;;-27.433029;153.019363;
622;0;FRANCK PROVOST BONDI;;SHOP 2, 35-37 HALL STREET;;2026;BONDI JUNCTION ;NSW;AUSTRALIA;02 8314 3113;;-33.890514;151.272598;
623;0;BELLA HAIR DESIGN;;SHOP 5, 40 FOURTH STREET ROAD;;6112;ARMADALE;WA;AUSTRALIA;08 9497 3366;;-32.155109;116.014198;
624;0;ROBERTA HAIR & BEAUTY;;432 ST KILDA ROAD (GROUND FLOOR);;3004;MELBOURNE;VIC;AUSTRALIA;03 9866 6220;;-37.837292;144.975128;
625;0;FMK STYLE;;70 DALHOUSIE ROAD;;2045;HABERFIELD;NSW;AUSTRALIA;02 9604 5264;;-33.880619;151.138611;
626;0;SIMROD HAIR STUDIO;;151 CARLISLE STREET;;3183;BALACLAVA;VIC;AUSTRALIA;03 9531 7868;;-37.868633;144.991852;
627;0;NYLON HAIR;;77 GLEN EIRA ROAD;;3185;RIPPONLEA;VIC;AUSTRALIA;03 9528 5288;;-37.876759;144.997559;
629;0;BROWN SUGAR HAIR;;246 COOGEE BAY ROAD;;2034;COOGEE;NSW;AUSTRALIA;02 9665 5559;;-33.920486;151.255875;
630;0;FRATELLE HAIR & MAKEUP;;215 COMMERCIAL ROAD;;3141;SOUTH YARRA;VIC;;03 9826 5055;;-37.84671;144.993484;
631;0;LATTOUF HAIR & DAY SPA;LATTOUF INTERNATIONAL;SHOP 341, CASTLE TOWERS SHOPPING CENTRE;;2154;CASTLE HILL;NSW;;02 9659 8834;;-33.730209;151.006485;
632;0;LATTOUF HAIR & DAY SPA;LATTOUF INTERNATIONAL;SHOP 4034 WESTFILED SHOPPING CENTRE, 159-179 CHURCH STREET;;2150;PARRAMATTA;NSW;AUSTRALIA;02 9635 8589;;-33.817921;151.002106;
